{"type": "FeatureCollection", "name": "damsen-walkways", "note": "Footpaths redrawn on the official map (gate at the bottom), georeferenced via the illustrated picture. Estimate (~3-8 m), not surveyed.", "features": [{"type": "Feature", "properties": {"id": "nw-e1", "path": "main-north", "lengthM": 15.53}, "geometry": {"type": "LineString", "coordinates": [[106.6377673, 10.7647472], [106.6377554, 10.7647862], [106.6377291, 10.7648292], [106.6377037, 10.7648718]]}}, {"type": "Feature", "properties": {"id": "nw-e2", "path": "main-north", "lengthM": 19.7}, "geometry": {"type": "LineString", "coordinates": [[106.6377037, 10.7648718], [106.6376792, 10.7649144], [106.6376555, 10.7649569], [106.6376326, 10.7649995], [106.6376177, 10.7650283]]}}, {"type": "Feature", "properties": {"id": "nw-e3", "path": "north-inner-walk", "lengthM": 8.08}, "geometry": {"type": "LineString", "coordinates": [[106.6384313, 10.7635912], [106.6383969, 10.7636559]]}}, {"type": "Feature", "properties": {"id": "nw-e4", "path": "main-south", "lengthM": 4.51}, "geometry": {"type": "LineString", "coordinates": [[106.6395983, 10.766223], [106.6396048, 10.7661827]]}}, {"type": "Feature", "properties": {"id": "nw-e5", "path": "main-south", "lengthM": 15.92}, "geometry": {"type": "LineString", "coordinates": [[106.6396048, 10.7661827], [106.6396126, 10.7661348], [106.6396248, 10.7660401]]}}, {"type": "Feature", "properties": {"id": "nw-e6", "path": "main-south", "lengthM": 21.71}, "geometry": {"type": "LineString", "coordinates": [[106.6396601, 10.7649912], [106.6396574, 10.7649203], [106.6396534, 10.7648495], [106.6396495, 10.7647952]]}}, {"type": "Feature", "properties": {"id": "nw-e7", "path": "main-south", "lengthM": 5.41}, "geometry": {"type": "LineString", "coordinates": [[106.6396092, 10.7644433], [106.6396013, 10.7643949]]}}, {"type": "Feature", "properties": {"id": "nw-e8", "path": "khu-b-connector", "lengthM": 18.19}, "geometry": {"type": "LineString", "coordinates": [[106.6385589, 10.7633008], [106.6385173, 10.763262], [106.6384777, 10.7632238], [106.6384401, 10.7631857]]}}, {"type": "Feature", "properties": {"id": "nw-e9", "path": "khu-b-connector", "lengthM": 16.92}, "geometry": {"type": "LineString", "coordinates": [[106.6384401, 10.7631857], [106.6384045, 10.7631475], [106.638371, 10.763109], [106.6383393, 10.7630697]]}}, {"type": "Feature", "properties": {"id": "nw-e10", "path": "khu-b-connector", "lengthM": 8.45}, "geometry": {"type": "LineString", "coordinates": [[106.6383393, 10.7630697], [106.6383096, 10.7630294], [106.6382948, 10.7630073]]}}, {"type": "Feature", "properties": {"id": "nw-e11", "path": "khu-b-connector", "lengthM": 34.86}, "geometry": {"type": "LineString", "coordinates": [[106.6376793, 10.7619545], [106.6376676, 10.7619471], [106.6376373, 10.7619296], [106.6373878, 10.7618282]]}}, {"type": "Feature", "properties": {"id": "nw-e12", "path": "khu-b-loop", "lengthM": 17.27}, "geometry": {"type": "LineString", "coordinates": [[106.6373407, 10.761809], [106.6373167, 10.7617989], [106.637295, 10.7617877], [106.6372756, 10.7617755], [106.6372584, 10.761762], [106.6372434, 10.7617473], [106.6372305, 10.7617314], [106.6372196, 10.7617141]]}}, {"type": "Feature", "properties": {"id": "nw-e13", "path": "khu-b-loop", "lengthM": 65.16}, "geometry": {"type": "LineString", "coordinates": [[106.6372196, 10.7617141], [106.6372107, 10.7616954], [106.6372037, 10.7616752], [106.6371986, 10.7616535], [106.6371954, 10.7616302], [106.6371939, 10.7616053], [106.6371969, 10.7611287]]}}, {"type": "Feature", "properties": {"id": "nw-e14", "path": "khu-b-loop", "lengthM": 7.64}, "geometry": {"type": "LineString", "coordinates": [[106.6371969, 10.7611287], [106.6371963, 10.7610596]]}}, {"type": "Feature", "properties": {"id": "nw-e15", "path": "khu-b-loop", "lengthM": 43.36}, "geometry": {"type": "LineString", "coordinates": [[106.6356118, 10.7616685], [106.6360076, 10.761692]]}}, {"type": "Feature", "properties": {"id": "nw-e16", "path": "khu-b-loop", "lengthM": 66.28}, "geometry": {"type": "LineString", "coordinates": [[106.6360076, 10.761692], [106.6366125, 10.7617279]]}}, {"type": "Feature", "properties": {"id": "nw-e17", "path": "khu-b-central", "lengthM": 61.04}, "geometry": {"type": "LineString", "coordinates": [[106.6363974, 10.761726], [106.6363864, 10.7622779]]}}, {"type": "Feature", "properties": {"id": "nw-e18", "path": "khu-b-central", "lengthM": 13.44}, "geometry": {"type": "LineString", "coordinates": [[106.6363864, 10.7622779], [106.6364358, 10.7622951], [106.6364909, 10.7623141], [106.6365024, 10.762318]]}}, {"type": "Feature", "properties": {"id": "nw-e19", "path": "khu-b-central", "lengthM": 16.06}, "geometry": {"type": "LineString", "coordinates": [[106.6370431, 10.7624968], [106.6371141, 10.7625198], [106.6371828, 10.7625419]]}}, {"type": "Feature", "properties": {"id": "nw-e20", "path": "khu-b-central", "lengthM": 25.81}, "geometry": {"type": "LineString", "coordinates": [[106.6371828, 10.7625419], [106.637401, 10.7626307]]}}, {"type": "Feature", "properties": {"id": "nw-e21", "path": "zoo-access", "lengthM": 43.36}, "geometry": {"type": "LineString", "coordinates": [[106.6356118, 10.7616685], [106.6360076, 10.761692]]}}, {"type": "Feature", "properties": {"id": "nw-e22", "path": "zoo-access", "lengthM": 43.94}, "geometry": {"type": "LineString", "coordinates": [[106.6360076, 10.761692], [106.6363977, 10.7617151], [106.6363974, 10.761726]]}}, {"type": "Feature", "properties": {"id": "nw-e23", "path": "zoo-access", "lengthM": 61.04}, "geometry": {"type": "LineString", "coordinates": [[106.6363974, 10.761726], [106.6363864, 10.7622779]]}}, {"type": "Feature", "properties": {"id": "nw-e24", "path": "gate-2-access", "lengthM": 14.89}, "geometry": {"type": "LineString", "coordinates": [[106.6374144, 10.7682224], [106.6374075, 10.7683569]]}}, {"type": "Feature", "properties": {"id": "nw-e25", "path": "children-east", "lengthM": 16.44}, "geometry": {"type": "LineString", "coordinates": [[106.6376539, 10.7685454], [106.6377182, 10.7685479], [106.637781, 10.7685477], [106.6378041, 10.7685466]]}}, {"type": "Feature", "properties": {"id": "nw-e26", "path": "children-south", "lengthM": 8.81}, "geometry": {"type": "LineString", "coordinates": [[106.6396183, 10.7674431], [106.6396019, 10.7673651]]}}, {"type": "Feature", "properties": {"id": "nw-e27", "path": "gate-1-west-avenue", "lengthM": 8.6}, "geometry": {"type": "LineString", "coordinates": [[106.6417634, 10.7659831], [106.641685, 10.7659779]]}}, {"type": "Feature", "properties": {"id": "nw-e28", "path": "gate-1-east-avenue", "lengthM": 68.75}, "geometry": {"type": "LineString", "coordinates": [[106.6417576, 10.7661778], [106.64113, 10.7661405]]}}, {"type": "Feature", "properties": {"id": "nw-e29", "path": "gate-1-east-avenue", "lengthM": 51.0}, "geometry": {"type": "LineString", "coordinates": [[106.64113, 10.7661405], [106.6410282, 10.7661345], [106.6406647, 10.76611]]}}, {"type": "Feature", "properties": {"id": "nw-e30", "path": "gate-1-top", "lengthM": 13.92}, "geometry": {"type": "LineString", "coordinates": [[106.6396491, 10.7658522], [106.6395724, 10.7657663], [106.639561, 10.7657654]]}}, {"type": "Feature", "properties": {"id": "nw-e31", "path": "gate-1-top", "lengthM": 28.5}, "geometry": {"type": "LineString", "coordinates": [[106.639561, 10.7657654], [106.6393012, 10.7657448]]}}, {"type": "Feature", "properties": {"id": "nw-e32", "path": "gate-1-top", "lengthM": 16.7}, "geometry": {"type": "LineString", "coordinates": [[106.6393012, 10.7657448], [106.6391674, 10.7656719]]}}, {"type": "Feature", "properties": {"id": "nw-e33", "path": "gate-1-top", "lengthM": 21.08}, "geometry": {"type": "LineString", "coordinates": [[106.6391674, 10.7656719], [106.6389747, 10.7656767]]}}, {"type": "Feature", "properties": {"id": "nw-e34", "path": "main-entrance-crossing", "lengthM": 16.75}, "geometry": {"type": "LineString", "coordinates": [[106.639561, 10.7657654], [106.6395768, 10.7659161]]}}, {"type": "Feature", "properties": {"id": "nw-e35", "path": "gate-1A-access", "lengthM": 23.43}, "geometry": {"type": "LineString", "coordinates": [[106.64113, 10.7661405], [106.6411313, 10.7661722], [106.6411338, 10.7662076], [106.6411375, 10.7662419], [106.6411421, 10.7662753], [106.6411474, 10.7663082], [106.641153, 10.766341], [106.6411547, 10.7663508]]}}, {"type": "Feature", "properties": {"id": "nw-e36", "path": "garden-west", "lengthM": 56.0}, "geometry": {"type": "LineString", "coordinates": [[106.6396092, 10.7644433], [106.6401155, 10.7645187]]}}, {"type": "Feature", "properties": {"id": "nw-e37", "path": "nam-tu-loop", "lengthM": 44.49}, "geometry": {"type": "LineString", "coordinates": [[106.6396601, 10.7649912], [106.6396712, 10.7653935]]}}, {"type": "Feature", "properties": {"id": "nw-e38", "path": "nam-tu-loop", "lengthM": 17.09}, "geometry": {"type": "LineString", "coordinates": [[106.6403458, 10.7655217], [106.6403496, 10.765495], [106.6403556, 10.7654694], [106.6403636, 10.7654449], [106.640379, 10.7654096], [106.6403918, 10.7653747]]}}, {"type": "Feature", "properties": {"id": "nw-e39", "path": "nam-tu-loop", "lengthM": 15.5}, "geometry": {"type": "LineString", "coordinates": [[106.6403918, 10.7653747], [106.6404023, 10.7653401], [106.6404104, 10.7653058], [106.6404163, 10.7652717], [106.6404201, 10.7652377]]}}, {"type": "Feature", "properties": {"id": "nw-e40", "path": "nam-tu-loop", "lengthM": 15.19}, "geometry": {"type": "LineString", "coordinates": [[106.6404201, 10.7652377], [106.6404219, 10.7652036], [106.6404218, 10.7651695], [106.6404199, 10.7651352], [106.6404163, 10.7651006]]}}, {"type": "Feature", "properties": {"id": "nw-e41", "path": "nam-tu-loop", "lengthM": 7.89}, "geometry": {"type": "LineString", "coordinates": [[106.6404163, 10.7651006], [106.6404111, 10.7650656], [106.6404044, 10.7650302]]}}, {"type": "Feature", "properties": {"id": "nw-e42", "path": "nam-tu-loop", "lengthM": 61.78}, "geometry": {"type": "LineString", "coordinates": [[106.6404044, 10.7650302], [106.6398403, 10.7650007]]}}, {"type": "Feature", "properties": {"id": "nw-e43", "path": "south-pond-loop", "lengthM": 17.96}, "geometry": {"type": "LineString", "coordinates": [[106.6404044, 10.7650302], [106.6404393, 10.7650283], [106.640473, 10.7650267], [106.6405058, 10.7650253], [106.6405376, 10.7650243], [106.6405685, 10.7650236]]}}, {"type": "Feature", "properties": {"id": "nw-e44", "path": "south-pond-loop", "lengthM": 17.41}, "geometry": {"type": "LineString", "coordinates": [[106.6405685, 10.7650236], [106.6405986, 10.7650234], [106.640628, 10.7650238], [106.6406567, 10.7650247], [106.6406849, 10.7650263], [106.6407125, 10.7650286], [106.6407274, 10.7650302]]}}, {"type": "Feature", "properties": {"id": "nw-e45", "path": "south-pond-loop", "lengthM": 17.87}, "geometry": {"type": "LineString", "coordinates": [[106.6407274, 10.7650302], [106.6407398, 10.7650316], [106.6407667, 10.7650355], [106.6407995, 10.7650402], [106.64083, 10.7650477], [106.6408583, 10.765058], [106.6408842, 10.7650709]]}}, {"type": "Feature", "properties": {"id": "nw-e46", "path": "south-pond-loop", "lengthM": 15.58}, "geometry": {"type": "LineString", "coordinates": [[106.6408842, 10.7650709], [106.6409077, 10.7650865], [106.6409289, 10.7651047], [106.6409476, 10.7651254], [106.6409639, 10.7651487], [106.6409776, 10.7651744]]}}, {"type": "Feature", "properties": {"id": "nw-e47", "path": "south-pond-loop", "lengthM": 15.88}, "geometry": {"type": "LineString", "coordinates": [[106.6409776, 10.7651744], [106.6409888, 10.7652026], [106.6409974, 10.7652332], [106.6410033, 10.7652662], [106.6410108, 10.7653137]]}}, {"type": "Feature", "properties": {"id": "nw-e48", "path": "south-pond-loop", "lengthM": 15.12}, "geometry": {"type": "LineString", "coordinates": [[106.6410108, 10.7653137], [106.6410163, 10.7653603], [106.6410195, 10.7654057], [106.6410203, 10.76545]]}}, {"type": "Feature", "properties": {"id": "nw-e49", "path": "south-pond-loop", "lengthM": 18.2}, "geometry": {"type": "LineString", "coordinates": [[106.6410203, 10.76545], [106.6410184, 10.7654929], [106.6410137, 10.7655343], [106.641006, 10.7655741], [106.6409951, 10.765612]]}}, {"type": "Feature", "properties": {"id": "nw-e50", "path": "south-pond-loop", "lengthM": 17.05}, "geometry": {"type": "LineString", "coordinates": [[106.6409951, 10.765612], [106.6409807, 10.7656481], [106.6409628, 10.765682], [106.6409411, 10.7657138], [106.6409154, 10.7657431]]}}, {"type": "Feature", "properties": {"id": "nw-e51", "path": "south-pond-loop", "lengthM": 16.69}, "geometry": {"type": "LineString", "coordinates": [[106.6409154, 10.7657431], [106.6408914, 10.7657645], [106.6408662, 10.7657827], [106.64084, 10.7657977], [106.6408129, 10.7658095], [106.640785, 10.7658182]]}}, {"type": "Feature", "properties": {"id": "nw-e52", "path": "south-pond-loop", "lengthM": 16.17}, "geometry": {"type": "LineString", "coordinates": [[106.640785, 10.7658182], [106.6407565, 10.7658238], [106.6407275, 10.7658263], [106.6406981, 10.7658258], [106.6406685, 10.7658222], [106.6406388, 10.7658156]]}}, {"type": "Feature", "properties": {"id": "nw-e53", "path": "south-pond-loop", "lengthM": 16.98}, "geometry": {"type": "LineString", "coordinates": [[106.6406388, 10.7658156], [106.6406092, 10.7658061], [106.6405797, 10.7657936], [106.6405526, 10.7657788], [106.6405269, 10.7657622], [106.6405029, 10.7657439]]}}, {"type": "Feature", "properties": {"id": "nw-e54", "path": "south-pond-loop", "lengthM": 16.33}, "geometry": {"type": "LineString", "coordinates": [[106.6405029, 10.7657439], [106.6404805, 10.7657239], [106.6404598, 10.7657025], [106.6404408, 10.7656798], [106.6404237, 10.7656557], [106.6404084, 10.7656306]]}}, {"type": "Feature", "properties": {"id": "nw-e55", "path": "south-pond-loop", "lengthM": 14.11}, "geometry": {"type": "LineString", "coordinates": [[106.6404084, 10.7656306], [106.640395, 10.7656044], [106.6403836, 10.7655773], [106.6403743, 10.7655495], [106.6403458, 10.7655217]]}}, {"type": "Feature", "properties": {"id": "nw-e56", "path": "stage-access", "lengthM": 18.0}, "geometry": {"type": "LineString", "coordinates": [[106.6389747, 10.7656767], [106.6388103, 10.7656832]]}}, {"type": "Feature", "properties": {"id": "nw-e57", "path": "cuu-khuc-bridge", "lengthM": 16.0}, "geometry": {"type": "LineString", "coordinates": [[106.6392995, 10.7652355], [106.6391591, 10.7651946]]}}, {"type": "Feature", "properties": {"id": "nw-e58", "path": "cuu-khuc-bridge", "lengthM": 20.94}, "geometry": {"type": "LineString", "coordinates": [[106.6391591, 10.7651946], [106.6391648, 10.7650054]]}}, {"type": "Feature", "properties": {"id": "nw-e59", "path": "cuu-khuc-bridge", "lengthM": 19.64}, "geometry": {"type": "LineString", "coordinates": [[106.6391648, 10.7650054], [106.6390207, 10.7648993]]}}, {"type": "Feature", "properties": {"id": "nw-e60", "path": "cuu-khuc-bridge", "lengthM": 15.3}, "geometry": {"type": "LineString", "coordinates": [[106.6390207, 10.7648993], [106.6390587, 10.7647661]]}}, {"type": "Feature", "properties": {"id": "nw-e61", "path": "cuu-khuc-bridge", "lengthM": 21.43}, "geometry": {"type": "LineString", "coordinates": [[106.6390587, 10.7647661], [106.6389212, 10.7646279]]}}, {"type": "Feature", "properties": {"id": "nw-e62", "path": "cuu-khuc-bridge", "lengthM": 17.02}, "geometry": {"type": "LineString", "coordinates": [[106.6389212, 10.7646279], [106.6388711, 10.7647737]]}}, {"type": "Feature", "properties": {"id": "nw-e63", "path": "cuu-khuc-bridge", "lengthM": 21.72}, "geometry": {"type": "LineString", "coordinates": [[106.6386834, 10.7648142], [106.6385285, 10.7646913]]}}, {"type": "Feature", "properties": {"id": "nw-e64", "path": "cuu-khuc-bridge", "lengthM": 24.98}, "geometry": {"type": "LineString", "coordinates": [[106.6385285, 10.7646913], [106.6383457, 10.7645558]]}}, {"type": "Feature", "properties": {"id": "nw-e65", "path": "cuu-khuc-upper-pier", "lengthM": 21.54}, "geometry": {"type": "LineString", "coordinates": [[106.6386834, 10.7648142], [106.6386776, 10.7650089]]}}, {"type": "Feature", "properties": {"id": "nw-e66", "path": "cuu-khuc-lower-pier", "lengthM": 24.1}, "geometry": {"type": "LineString", "coordinates": [[106.6390207, 10.7648993], [106.6389803, 10.7651136]]}}, {"type": "Feature", "properties": {"id": "nw-e67", "path": "cuu-khuc-pavilion-access", "lengthM": 16.98}, "geometry": {"type": "LineString", "coordinates": [[106.6383457, 10.7645558], [106.6383584, 10.7645363], [106.6383699, 10.7645166], [106.6383802, 10.7644968], [106.6383892, 10.7644769], [106.6383968, 10.7644569], [106.6384031, 10.7644367], [106.6384079, 10.7644162]]}}, {"type": "Feature", "properties": {"id": "nw-e68", "path": "cuu-khuc-pavilion-access", "lengthM": 11.76}, "geometry": {"type": "LineString", "coordinates": [[106.6384079, 10.7644162], [106.6384113, 10.7643956], [106.6384133, 10.7643747], [106.6384136, 10.7643536], [106.6384125, 10.7643321], [106.6384097, 10.7643104]]}}, {"type": "Feature", "properties": {"id": "nw-e69", "path": "khu-b-lake-access", "lengthM": 8.97}, "geometry": {"type": "LineString", "coordinates": [[106.63601, 10.7616108], [106.6360076, 10.761692]]}}, {"type": "Feature", "properties": {"id": "nw-e70", "path": "rides-west-access", "lengthM": 22.3}, "geometry": {"type": "LineString", "coordinates": [[106.6377673, 10.7647472], [106.6375684, 10.7647914]]}}, {"type": "Feature", "properties": {"id": "nw-e71", "path": "circus-access", "lengthM": 33.82}, "geometry": {"type": "LineString", "coordinates": [[106.6370431, 10.7624968], [106.6370605, 10.7628022]]}}, {"type": "Feature", "properties": {"id": "nw-e72", "path": "split", "lengthM": 22.55}, "geometry": {"type": "LineString", "coordinates": [[106.6396248, 10.7660401], [106.6396351, 10.7659403], [106.6396437, 10.765837]]}}, {"type": "Feature", "properties": {"id": "nw-e73", "path": "split", "lengthM": 23.4}, "geometry": {"type": "LineString", "coordinates": [[106.6396437, 10.765837], [106.6396506, 10.7657316], [106.6396559, 10.7656257]]}}, {"type": "Feature", "properties": {"id": "nw-e74", "path": "split", "lengthM": 22.96}, "geometry": {"type": "LineString", "coordinates": [[106.6396559, 10.7656257], [106.6396598, 10.7655207], [106.6396623, 10.7654181]]}}, {"type": "Feature", "properties": {"id": "nw-e75", "path": "split", "lengthM": 18.82}, "geometry": {"type": "LineString", "coordinates": [[106.6396623, 10.7654181], [106.6396637, 10.7653195], [106.6396638, 10.7652479]]}}, {"type": "Feature", "properties": {"id": "nw-e76", "path": "split", "lengthM": 20.57}, "geometry": {"type": "LineString", "coordinates": [[106.6396638, 10.7652479], [106.6396639, 10.7652262], [106.6396631, 10.7651399], [106.6396615, 10.7650619]]}}, {"type": "Feature", "properties": {"id": "nw-e77", "path": "split", "lengthM": 7.82}, "geometry": {"type": "LineString", "coordinates": [[106.6396615, 10.7650619], [106.6396601, 10.7649912]]}}, {"type": "Feature", "properties": {"id": "nw-e78", "path": "connector", "lengthM": 31.65}, "geometry": {"type": "LineString", "coordinates": [[106.6396638, 10.7652479], [106.6393746, 10.765238]]}}, {"type": "Feature", "properties": {"id": "nw-e79", "path": "split", "lengthM": 16.73}, "geometry": {"type": "LineString", "coordinates": [[106.6374144, 10.7682224], [106.637449, 10.7682199], [106.6374848, 10.7682113], [106.6375214, 10.7681971], [106.6375586, 10.7681776]]}}, {"type": "Feature", "properties": {"id": "nw-e80", "path": "split", "lengthM": 15.63}, "geometry": {"type": "LineString", "coordinates": [[106.6375586, 10.7681776], [106.6375962, 10.7681532], [106.637634, 10.7681244], [106.6376716, 10.7680915]]}}, {"type": "Feature", "properties": {"id": "nw-e81", "path": "split", "lengthM": 17.84}, "geometry": {"type": "LineString", "coordinates": [[106.6376716, 10.7680915], [106.6377089, 10.7680549], [106.6377456, 10.768015], [106.6377814, 10.7679723]]}}, {"type": "Feature", "properties": {"id": "nw-e82", "path": "split", "lengthM": 24.24}, "geometry": {"type": "LineString", "coordinates": [[106.6377814, 10.7679723], [106.6378161, 10.7679271], [106.6378495, 10.7678798], [106.6378784, 10.7678336], [106.6379058, 10.767791]]}}, {"type": "Feature", "properties": {"id": "nw-e83", "path": "split", "lengthM": 16.48}, "geometry": {"type": "LineString", "coordinates": [[106.6393773, 10.7670267], [106.6393983, 10.7670039], [106.6394244, 10.7669717], [106.63945, 10.7669365], [106.6394686, 10.7669084]]}}, {"type": "Feature", "properties": {"id": "nw-e84", "path": "connector", "lengthM": 26.89}, "geometry": {"type": "LineString", "coordinates": [[106.6393773, 10.7670267], [106.6395638, 10.7671852]]}}, {"type": "Feature", "properties": {"id": "nw-e85", "path": "split", "lengthM": 14.68}, "geometry": {"type": "LineString", "coordinates": [[106.6385589, 10.7633008], [106.6385163, 10.7633287], [106.6384774, 10.7633582], [106.6384519, 10.7633806]]}}, {"type": "Feature", "properties": {"id": "nw-e86", "path": "split", "lengthM": 10.89}, "geometry": {"type": "LineString", "coordinates": [[106.6383295, 10.763525], [106.6383276, 10.7635277], [106.6383039, 10.7635657], [106.6382814, 10.763605], [106.6382789, 10.7636098]]}}, {"type": "Feature", "properties": {"id": "nw-e87", "path": "connector", "lengthM": 13.32}, "geometry": {"type": "LineString", "coordinates": [[106.6383295, 10.763525], [106.6384313, 10.7635912]]}}, {"type": "Feature", "properties": {"id": "nw-e88", "path": "gate-1-west-avenue", "lengthM": 71.33}, "geometry": {"type": "LineString", "coordinates": [[106.641685, 10.7659779], [106.6410343, 10.7659344]]}}, {"type": "Feature", "properties": {"id": "nw-e89", "path": "gate-1-west-avenue", "lengthM": 151.75}, "geometry": {"type": "LineString", "coordinates": [[106.6410343, 10.7659344], [106.6396491, 10.7658522]]}}, {"type": "Feature", "properties": {"id": "nw-e90", "path": "gate-1-east-avenue", "lengthM": 59.68}, "geometry": {"type": "LineString", "coordinates": [[106.6405055, 10.7660993], [106.6399611, 10.7660627]]}}, {"type": "Feature", "properties": {"id": "nw-e91", "path": "gate-1-east-avenue", "lengthM": 36.86}, "geometry": {"type": "LineString", "coordinates": [[106.6399611, 10.7660627], [106.6396248, 10.7660401]]}}, {"type": "Feature", "properties": {"id": "nw-e92", "path": "split", "lengthM": 16.17}, "geometry": {"type": "LineString", "coordinates": [[106.6395917, 10.7664006], [106.6395926, 10.7663828], [106.6395949, 10.7663293], [106.6395967, 10.766276], [106.6395974, 10.7662545]]}}, {"type": "Feature", "properties": {"id": "nw-e93", "path": "split", "lengthM": 3.49}, "geometry": {"type": "LineString", "coordinates": [[106.6395974, 10.7662545], [106.6395983, 10.766223]]}}, {"type": "Feature", "properties": {"id": "nw-e94", "path": "split", "lengthM": 16.7}, "geometry": {"type": "LineString", "coordinates": [[106.6394686, 10.7669084], [106.6394751, 10.7668986], [106.6394997, 10.7668578], [106.6395239, 10.7668145], [106.6395381, 10.7667746]]}}, {"type": "Feature", "properties": {"id": "nw-e95", "path": "split", "lengthM": 15.3}, "geometry": {"type": "LineString", "coordinates": [[106.6395381, 10.7667746], [106.6395503, 10.766732], [106.6395605, 10.766687], [106.639569, 10.7666398]]}}, {"type": "Feature", "properties": {"id": "nw-e96", "path": "split", "lengthM": 16.83}, "geometry": {"type": "LineString", "coordinates": [[106.639569, 10.7666398], [106.639576, 10.7665908], [106.6395817, 10.7665403], [106.6395863, 10.7664885]]}}, {"type": "Feature", "properties": {"id": "nw-e97", "path": "split", "lengthM": 9.74}, "geometry": {"type": "LineString", "coordinates": [[106.6395863, 10.7664885], [106.6395898, 10.7664359], [106.6395917, 10.7664006]]}}, {"type": "Feature", "properties": {"id": "nw-e98", "path": "children-south", "lengthM": 20.32}, "geometry": {"type": "LineString", "coordinates": [[106.6396019, 10.7673651], [106.6395638, 10.7671852]]}}, {"type": "Feature", "properties": {"id": "nw-e99", "path": "children-east", "lengthM": 17.2}, "geometry": {"type": "LineString", "coordinates": [[106.639208, 10.7679129], [106.6392174, 10.7679046], [106.6392704, 10.767855], [106.6393211, 10.7678048]]}}, {"type": "Feature", "properties": {"id": "nw-e100", "path": "children-east", "lengthM": 15.34}, "geometry": {"type": "LineString", "coordinates": [[106.6393211, 10.7678048], [106.6393697, 10.7677541], [106.6394162, 10.7677028]]}}, {"type": "Feature", "properties": {"id": "nw-e101", "path": "children-east", "lengthM": 22.12}, "geometry": {"type": "LineString", "coordinates": [[106.6394162, 10.7677028], [106.6394606, 10.7676512], [106.639503, 10.7675994], [106.6395434, 10.7675473]]}}, {"type": "Feature", "properties": {"id": "nw-e102", "path": "children-east", "lengthM": 14.14}, "geometry": {"type": "LineString", "coordinates": [[106.6395434, 10.7675473], [106.6395819, 10.7674952], [106.6396183, 10.7674431]]}}, {"type": "Feature", "properties": {"id": "nw-e103", "path": "split", "lengthM": 15.93}, "geometry": {"type": "LineString", "coordinates": [[106.6384894, 10.7672603], [106.6385069, 10.7672539], [106.6385477, 10.7672412], [106.6385887, 10.7672309], [106.6386297, 10.7672225]]}}, {"type": "Feature", "properties": {"id": "nw-e104", "path": "split", "lengthM": 17.63}, "geometry": {"type": "LineString", "coordinates": [[106.6386297, 10.7672225], [106.6386709, 10.767216], [106.638712, 10.7672111], [106.6387532, 10.7672075], [106.6387899, 10.7672053]]}}, {"type": "Feature", "properties": {"id": "nw-e105", "path": "split", "lengthM": 15.9}, "geometry": {"type": "LineString", "coordinates": [[106.6387899, 10.7672053], [106.6388262, 10.7672024], [106.6388623, 10.7671988], [106.6388983, 10.7671945], [106.6389344, 10.7671895]]}}, {"type": "Feature", "properties": {"id": "nw-e106", "path": "split", "lengthM": 16.31}, "geometry": {"type": "LineString", "coordinates": [[106.6389344, 10.7671895], [106.6389705, 10.7671839], [106.639007, 10.7671776], [106.6390438, 10.7671706], [106.6390811, 10.767163]]}}, {"type": "Feature", "properties": {"id": "nw-e107", "path": "split", "lengthM": 16.53}, "geometry": {"type": "LineString", "coordinates": [[106.6390811, 10.767163], [106.639119, 10.7671548], [106.6391576, 10.7671459], [106.6391971, 10.7671364], [106.639228, 10.7671282]]}}, {"type": "Feature", "properties": {"id": "nw-e108", "path": "split", "lengthM": 20.0}, "geometry": {"type": "LineString", "coordinates": [[106.639228, 10.7671282], [106.6392582, 10.7671162], [106.6392876, 10.7671006], [106.6393162, 10.7670814], [106.6393442, 10.7670589], [106.6393715, 10.767033], [106.6393773, 10.7670267]]}}, {"type": "Feature", "properties": {"id": "nw-e109", "path": "children-east", "lengthM": 18.05}, "geometry": {"type": "LineString", "coordinates": [[106.6381106, 10.768502], [106.6381371, 10.7684954], [106.6381943, 10.7684792], [106.6382514, 10.7684611], [106.6382686, 10.7684551]]}}, {"type": "Feature", "properties": {"id": "nw-e110", "path": "split", "lengthM": 19.24}, "geometry": {"type": "LineString", "coordinates": [[106.6380651, 10.7675728], [106.6380752, 10.7675606], [106.6381116, 10.7675202], [106.6381489, 10.7674824], [106.6381872, 10.7674478]]}}, {"type": "Feature", "properties": {"id": "nw-e111", "path": "split", "lengthM": 16.27}, "geometry": {"type": "LineString", "coordinates": [[106.6381872, 10.7674478], [106.6382263, 10.7674168], [106.6382663, 10.7673899], [106.6383057, 10.7673589]]}}, {"type": "Feature", "properties": {"id": "nw-e112", "path": "split", "lengthM": 22.94}, "geometry": {"type": "LineString", "coordinates": [[106.6383057, 10.7673589], [106.6383454, 10.7673315], [106.6383854, 10.7673076], [106.6384257, 10.7672868], [106.6384662, 10.767269], [106.6384894, 10.7672603]]}}, {"type": "Feature", "properties": {"id": "nw-e113", "path": "split", "lengthM": 19.22}, "geometry": {"type": "LineString", "coordinates": [[106.6379058, 10.767791], [106.6379084, 10.7677869], [106.6379396, 10.76774], [106.6379719, 10.7676935], [106.6380053, 10.7676477]]}}, {"type": "Feature", "properties": {"id": "nw-e114", "path": "split", "lengthM": 10.56}, "geometry": {"type": "LineString", "coordinates": [[106.6380053, 10.7676477], [106.6380397, 10.7676033], [106.6380651, 10.7675728]]}}, {"type": "Feature", "properties": {"id": "nw-e115", "path": "children-east", "lengthM": 17.42}, "geometry": {"type": "LineString", "coordinates": [[106.6378041, 10.7685466], [106.6378426, 10.7685448], [106.6379031, 10.7685395], [106.6379626, 10.7685318]]}}, {"type": "Feature", "properties": {"id": "nw-e116", "path": "children-east", "lengthM": 16.52}, "geometry": {"type": "LineString", "coordinates": [[106.6379626, 10.7685318], [106.6380214, 10.7685219], [106.6380795, 10.7685097], [106.6381106, 10.768502]]}}, {"type": "Feature", "properties": {"id": "nw-e117", "path": "gate-2-access", "lengthM": 18.07}, "geometry": {"type": "LineString", "coordinates": [[106.6374075, 10.7683569], [106.637399, 10.7685201]]}}, {"type": "Feature", "properties": {"id": "nw-e118", "path": "main-north", "lengthM": 18.36}, "geometry": {"type": "LineString", "coordinates": [[106.6370272, 10.768017], [106.6370272, 10.768017], [106.637057, 10.7680549], [106.6370918, 10.7680791], [106.6371245, 10.7681013], [106.6371554, 10.7681217]]}}, {"type": "Feature", "properties": {"id": "nw-e119", "path": "main-north", "lengthM": 17.45}, "geometry": {"type": "LineString", "coordinates": [[106.6371554, 10.7681217], [106.6371849, 10.7681401], [106.6372133, 10.7681567], [106.6372411, 10.7681715], [106.6372685, 10.7681844], [106.6372961, 10.7681955]]}}, {"type": "Feature", "properties": {"id": "nw-e120", "path": "main-north", "lengthM": 13.31}, "geometry": {"type": "LineString", "coordinates": [[106.6372961, 10.7681955], [106.6373241, 10.7682048], [106.6373529, 10.7682124], [106.6373829, 10.7682183], [106.6374144, 10.7682224]]}}, {"type": "Feature", "properties": {"id": "nw-e121", "path": "main-north", "lengthM": 4.49}, "geometry": {"type": "LineString", "coordinates": [[106.637065, 10.7670367], [106.637065, 10.7670367], [106.6370487, 10.767074]]}}, {"type": "Feature", "properties": {"id": "nw-e122", "path": "main-north", "lengthM": 15.67}, "geometry": {"type": "LineString", "coordinates": [[106.6370487, 10.767074], [106.6370395, 10.7670949], [106.6370172, 10.7671516], [106.6369981, 10.7672065]]}}, {"type": "Feature", "properties": {"id": "nw-e123", "path": "main-north", "lengthM": 17.37}, "geometry": {"type": "LineString", "coordinates": [[106.6369981, 10.7672065], [106.6369824, 10.7672595], [106.6369702, 10.7673104], [106.6369616, 10.7673592]]}}, {"type": "Feature", "properties": {"id": "nw-e124", "path": "main-north", "lengthM": 18.92}, "geometry": {"type": "LineString", "coordinates": [[106.6369616, 10.7673592], [106.6369567, 10.7674056], [106.6369556, 10.7674495], [106.6369584, 10.7674908], [106.6369651, 10.7675293]]}}, {"type": "Feature", "properties": {"id": "nw-e125", "path": "main-north", "lengthM": 18.67}, "geometry": {"type": "LineString", "coordinates": [[106.6369651, 10.7675293], [106.6369482, 10.7675644], [106.6369362, 10.7676038], [106.636929, 10.7676466], [106.6369265, 10.767692]]}}, {"type": "Feature", "properties": {"id": "nw-e126", "path": "main-north", "lengthM": 16.11}, "geometry": {"type": "LineString", "coordinates": [[106.6369265, 10.767692], [106.6369284, 10.7677393], [106.6369347, 10.7677876], [106.6369453, 10.7678362]]}}, {"type": "Feature", "properties": {"id": "nw-e127", "path": "main-north", "lengthM": 22.02}, "geometry": {"type": "LineString", "coordinates": [[106.6369453, 10.7678362], [106.6369599, 10.7678842], [106.6369786, 10.7679309], [106.637001, 10.7679754], [106.6370272, 10.768017]]}}, {"type": "Feature", "properties": {"id": "nw-e128", "path": "main-north", "lengthM": 11.48}, "geometry": {"type": "LineString", "coordinates": [[106.6373468, 10.7656479], [106.6373433, 10.7656579], [106.637329, 10.7657019], [106.6373159, 10.7657471]]}}, {"type": "Feature", "properties": {"id": "nw-e129", "path": "main-north", "lengthM": 6.17}, "geometry": {"type": "LineString", "coordinates": [[106.6373159, 10.7657471], [106.6373159, 10.7657471], [106.6373039, 10.7657938], [106.6373023, 10.7658012]]}}, {"type": "Feature", "properties": {"id": "nw-e130", "path": "main-north", "lengthM": 3.0}, "geometry": {"type": "LineString", "coordinates": [[106.6373023, 10.7658012], [106.6372965, 10.7658277]]}}, {"type": "Feature", "properties": {"id": "nw-e131", "path": "main-north", "lengthM": 10.79}, "geometry": {"type": "LineString", "coordinates": [[106.6373814, 10.7655565], [106.637375, 10.7655722], [106.6373586, 10.7656147], [106.6373468, 10.7656479]]}}, {"type": "Feature", "properties": {"id": "nw-e132", "path": "split", "lengthM": 19.18}, "geometry": {"type": "LineString", "coordinates": [[106.6381613, 10.7638568], [106.6381483, 10.7638861], [106.6381282, 10.7639315], [106.6381094, 10.7639746], [106.6380915, 10.7640159]]}}, {"type": "Feature", "properties": {"id": "nw-e133", "path": "split", "lengthM": 19.01}, "geometry": {"type": "LineString", "coordinates": [[106.6380915, 10.7640159], [106.6380743, 10.764056], [106.6380577, 10.7640955], [106.6380413, 10.7641349], [106.6380251, 10.7641748]]}}, {"type": "Feature", "properties": {"id": "nw-e134", "path": "split", "lengthM": 14.1}, "geometry": {"type": "LineString", "coordinates": [[106.6380251, 10.7641748], [106.6380088, 10.7642159], [106.6379921, 10.7642585], [106.6379771, 10.7642931]]}}, {"type": "Feature", "properties": {"id": "nw-e135", "path": "split", "lengthM": 19.23}, "geometry": {"type": "LineString", "coordinates": [[106.6382685, 10.7636291], [106.6382598, 10.7636456], [106.6382386, 10.7636873], [106.6382176, 10.7637302], [106.6381927, 10.763786]]}}, {"type": "Feature", "properties": {"id": "nw-e136", "path": "split", "lengthM": 8.55}, "geometry": {"type": "LineString", "coordinates": [[106.6381927, 10.763786], [106.6381697, 10.7638378], [106.6381613, 10.7638568]]}}, {"type": "Feature", "properties": {"id": "nw-e137", "path": "khu-b-central", "lengthM": 15.24}, "geometry": {"type": "LineString", "coordinates": [[106.637401, 10.7626307], [106.637401, 10.7626307], [106.6374217, 10.7625897], [106.6374418, 10.7625483], [106.6374614, 10.7625064]]}}, {"type": "Feature", "properties": {"id": "nw-e138", "path": "khu-b-central", "lengthM": 15.38}, "geometry": {"type": "LineString", "coordinates": [[106.6374614, 10.7625064], [106.6374805, 10.7624642], [106.6374992, 10.7624217], [106.6375176, 10.7623789]]}}, {"type": "Feature", "properties": {"id": "nw-e139", "path": "khu-b-central", "lengthM": 15.51}, "geometry": {"type": "LineString", "coordinates": [[106.6375176, 10.7623789], [106.6375357, 10.7623359], [106.6375538, 10.7622926], [106.6375717, 10.7622492]]}}, {"type": "Feature", "properties": {"id": "nw-e140", "path": "khu-b-central", "lengthM": 15.62}, "geometry": {"type": "LineString", "coordinates": [[106.6375717, 10.7622492], [106.6375897, 10.7622057], [106.6376077, 10.7621621], [106.6376259, 10.7621185]]}}, {"type": "Feature", "properties": {"id": "nw-e141", "path": "khu-b-central", "lengthM": 19.05}, "geometry": {"type": "LineString", "coordinates": [[106.6376259, 10.7621185], [106.6376793, 10.7619545]]}}, {"type": "Feature", "properties": {"id": "nw-e142", "path": "split", "lengthM": 3.81}, "geometry": {"type": "LineString", "coordinates": [[106.6383491, 10.7634965], [106.6383295, 10.763525]]}}, {"type": "Feature", "properties": {"id": "nw-e143", "path": "split", "lengthM": 2.42}, "geometry": {"type": "LineString", "coordinates": [[106.6382789, 10.7636098], [106.6382685, 10.7636291]]}}, {"type": "Feature", "properties": {"id": "nw-e144", "path": "split", "lengthM": 17.09}, "geometry": {"type": "LineString", "coordinates": [[106.6384519, 10.7633806], [106.638442, 10.7633892], [106.6384097, 10.7634217], [106.6383801, 10.7634557], [106.6383529, 10.763491], [106.6383491, 10.7634965]]}}, {"type": "Feature", "properties": {"id": "nw-e145", "path": "khu-b-connector", "lengthM": 19.58}, "geometry": {"type": "LineString", "coordinates": [[106.6382948, 10.7630073], [106.6382818, 10.7629878], [106.6382558, 10.7629445], [106.6382317, 10.7628994], [106.6382093, 10.762852]]}}, {"type": "Feature", "properties": {"id": "nw-e146", "path": "khu-b-connector", "lengthM": 17.66}, "geometry": {"type": "LineString", "coordinates": [[106.6382093, 10.762852], [106.6381888, 10.762802], [106.6381685, 10.7627546], [106.6381476, 10.7627044]]}}, {"type": "Feature", "properties": {"id": "nw-e147", "path": "khu-b-connector", "lengthM": 19.0}, "geometry": {"type": "LineString", "coordinates": [[106.6381476, 10.7627044], [106.6381261, 10.7626523], [106.6381042, 10.762599], [106.6380822, 10.7625452]]}}, {"type": "Feature", "properties": {"id": "nw-e148", "path": "khu-b-connector", "lengthM": 18.77}, "geometry": {"type": "LineString", "coordinates": [[106.6380822, 10.7625452], [106.63806, 10.7624917], [106.638038, 10.7624392], [106.6380162, 10.7623885]]}}, {"type": "Feature", "properties": {"id": "nw-e149", "path": "khu-b-connector", "lengthM": 16.33}, "geometry": {"type": "LineString", "coordinates": [[106.6380162, 10.7623885], [106.6379948, 10.7623403], [106.6379739, 10.7622953], [106.6379537, 10.7622543]]}}, {"type": "Feature", "properties": {"id": "nw-e150", "path": "khu-b-connector", "lengthM": 15.81}, "geometry": {"type": "LineString", "coordinates": [[106.6379537, 10.7622543], [106.6379344, 10.7622181], [106.6379174, 10.762189], [106.6378986, 10.7621605], [106.6378781, 10.7621328]]}}, {"type": "Feature", "properties": {"id": "nw-e151", "path": "khu-b-connector", "lengthM": 15.46}, "geometry": {"type": "LineString", "coordinates": [[106.6378781, 10.7621328], [106.637856, 10.7621059], [106.6378325, 10.7620799], [106.6378077, 10.7620548], [106.6377816, 10.7620308]]}}, {"type": "Feature", "properties": {"id": "nw-e152", "path": "khu-b-connector", "lengthM": 14.04}, "geometry": {"type": "LineString", "coordinates": [[106.6377816, 10.7620308], [106.6377545, 10.762008], [106.6377263, 10.7619863], [106.6376974, 10.761966], [106.6376793, 10.7619545]]}}, {"type": "Feature", "properties": {"id": "nw-e153", "path": "main-south", "lengthM": 20.55}, "geometry": {"type": "LineString", "coordinates": [[106.6395398, 10.7641026], [106.6395364, 10.764089], [106.6395206, 10.7640325], [106.6395038, 10.7639776], [106.6394861, 10.7639247]]}}, {"type": "Feature", "properties": {"id": "nw-e154", "path": "main-south", "lengthM": 17.26}, "geometry": {"type": "LineString", "coordinates": [[106.6394861, 10.7639247], [106.6394673, 10.7638739], [106.6394475, 10.7638257], [106.6394267, 10.7637801]]}}, {"type": "Feature", "properties": {"id": "nw-e155", "path": "main-south", "lengthM": 20.89}, "geometry": {"type": "LineString", "coordinates": [[106.6394267, 10.7637801], [106.6394048, 10.7637375], [106.6393819, 10.7636982], [106.639358, 10.7636624], [106.6393258, 10.7636202]]}}, {"type": "Feature", "properties": {"id": "nw-e156", "path": "main-south", "lengthM": 15.58}, "geometry": {"type": "LineString", "coordinates": [[106.6393258, 10.7636202], [106.6392945, 10.7635814], [106.6392636, 10.7635458], [106.639233, 10.7635134]]}}, {"type": "Feature", "properties": {"id": "nw-e157", "path": "main-south", "lengthM": 17.63}, "geometry": {"type": "LineString", "coordinates": [[106.639233, 10.7635134], [106.6392025, 10.763484], [106.6391716, 10.7634577], [106.6391401, 10.7634343], [106.6391079, 10.7634136]]}}, {"type": "Feature", "properties": {"id": "nw-e158", "path": "main-south", "lengthM": 16.88}, "geometry": {"type": "LineString", "coordinates": [[106.6391079, 10.7634136], [106.6390745, 10.7633957], [106.6390397, 10.7633804], [106.6390034, 10.7633677], [106.638965, 10.7633574]]}}, {"type": "Feature", "properties": {"id": "nw-e159", "path": "main-south", "lengthM": 22.99}, "geometry": {"type": "LineString", "coordinates": [[106.638965, 10.7633574], [106.6387562, 10.7633342]]}}, {"type": "Feature", "properties": {"id": "nw-e160", "path": "main-south", "lengthM": 21.97}, "geometry": {"type": "LineString", "coordinates": [[106.6387562, 10.7633342], [106.6387355, 10.7633306], [106.6387157, 10.7633279], [106.6386968, 10.7633257], [106.6386787, 10.7633239], [106.6386613, 10.7633223], [106.6386447, 10.7633208], [106.6386288, 10.763319], [106.6386136, 10.7633169], [106.6385991, 10.7633142], [106.6385851, 10.7633107], [106.6385718, 10.7633063], [106.6385589, 10.7633008]]}}, {"type": "Feature", "properties": {"id": "nw-e161", "path": "nam-tu-loop", "lengthM": 19.74}, "geometry": {"type": "LineString", "coordinates": [[106.6398403, 10.7650007], [106.6396601, 10.7649912]]}}, {"type": "Feature", "properties": {"id": "nw-e162", "path": "garden-west", "lengthM": 1.69}, "geometry": {"type": "LineString", "coordinates": [[106.6401155, 10.7645187], [106.6401308, 10.764521]]}}, {"type": "Feature", "properties": {"id": "nw-e163", "path": "garden-west", "lengthM": 31.78}, "geometry": {"type": "LineString", "coordinates": [[106.6405571, 10.7647973], [106.6407274, 10.7650302]]}}, {"type": "Feature", "properties": {"id": "nw-e164", "path": "nam-tu-loop", "lengthM": 38.36}, "geometry": {"type": "LineString", "coordinates": [[106.6396712, 10.7653935], [106.6396808, 10.7657403]]}}, {"type": "Feature", "properties": {"id": "nw-e165", "path": "nam-tu-loop", "lengthM": 62.05}, "geometry": {"type": "LineString", "coordinates": [[106.6396808, 10.7657403], [106.6402466, 10.7657827]]}}, {"type": "Feature", "properties": {"id": "nw-e166", "path": "connector", "lengthM": 8.22}, "geometry": {"type": "LineString", "coordinates": [[106.6393746, 10.765238], [106.6392995, 10.7652355]]}}, {"type": "Feature", "properties": {"id": "nw-e167", "path": "main-entrance-crossing", "lengthM": 29.63}, "geometry": {"type": "LineString", "coordinates": [[106.6395768, 10.7659161], [106.6396048, 10.7661827]]}}, {"type": "Feature", "properties": {"id": "nw-e168", "path": "north-inner-walk", "lengthM": 19.22}, "geometry": {"type": "LineString", "coordinates": [[106.6373846, 10.7663441], [106.6373835, 10.7663654], [106.6373812, 10.7664424], [106.6373798, 10.7665178]]}}, {"type": "Feature", "properties": {"id": "nw-e169", "path": "north-inner-walk", "lengthM": 16.23}, "geometry": {"type": "LineString", "coordinates": [[106.6373798, 10.7665178], [106.6373784, 10.7665918], [106.6373761, 10.7666645]]}}, {"type": "Feature", "properties": {"id": "nw-e170", "path": "north-inner-walk", "lengthM": 15.78}, "geometry": {"type": "LineString", "coordinates": [[106.6373761, 10.7666645], [106.6373719, 10.7667361], [106.6373651, 10.7668068]]}}, {"type": "Feature", "properties": {"id": "nw-e171", "path": "north-inner-walk", "lengthM": 15.64}, "geometry": {"type": "LineString", "coordinates": [[106.6373651, 10.7668068], [106.6373547, 10.7668767], [106.6373399, 10.7669459]]}}, {"type": "Feature", "properties": {"id": "nw-e172", "path": "north-inner-walk", "lengthM": 16.02}, "geometry": {"type": "LineString", "coordinates": [[106.6373399, 10.7669459], [106.6373197, 10.7670147], [106.6372932, 10.7670831]]}}, {"type": "Feature", "properties": {"id": "nw-e173", "path": "north-inner-walk", "lengthM": 20.54}, "geometry": {"type": "LineString", "coordinates": [[106.6372932, 10.7670831], [106.6372597, 10.7671514], [106.6372318, 10.7672008], [106.6372052, 10.7672471]]}}, {"type": "Feature", "properties": {"id": "nw-e174", "path": "north-inner-walk", "lengthM": 15.69}, "geometry": {"type": "LineString", "coordinates": [[106.6372052, 10.7672471], [106.6371802, 10.7672906], [106.6371569, 10.7673319], [106.6371357, 10.7673712]]}}, {"type": "Feature", "properties": {"id": "nw-e175", "path": "north-inner-walk", "lengthM": 17.49}, "geometry": {"type": "LineString", "coordinates": [[106.6371357, 10.7673712], [106.6371167, 10.767409], [106.6371002, 10.7674457], [106.6370865, 10.7674818], [106.6370758, 10.7675176]]}}, {"type": "Feature", "properties": {"id": "nw-e176", "path": "north-inner-walk", "lengthM": 12.24}, "geometry": {"type": "LineString", "coordinates": [[106.6370758, 10.7675176], [106.6370684, 10.7675535], [106.6370644, 10.7675899], [106.6370641, 10.7676273]]}}, {"type": "Feature", "properties": {"id": "nw-e177", "path": "cuu-khuc-bridge", "lengthM": 15.76}, "geometry": {"type": "LineString", "coordinates": [[106.6388711, 10.7647737], [106.6388592, 10.7648084], [106.6387644, 10.7647595]]}}, {"type": "Feature", "properties": {"id": "nw-e178", "path": "cuu-khuc-bridge", "lengthM": 10.73}, "geometry": {"type": "LineString", "coordinates": [[106.6387644, 10.7647595], [106.6386834, 10.7648142]]}}, {"type": "Feature", "properties": {"id": "nw-e179", "path": "khu-b-connector", "lengthM": 5.57}, "geometry": {"type": "LineString", "coordinates": [[106.6373878, 10.7618282], [106.6373407, 10.761809]]}}, {"type": "Feature", "properties": {"id": "nw-e180", "path": "khu-b-loop", "lengthM": 39.64}, "geometry": {"type": "LineString", "coordinates": [[106.6366125, 10.7617279], [106.6369743, 10.7617494]]}}, {"type": "Feature", "properties": {"id": "nw-e181", "path": "khu-b-loop", "lengthM": 15.97}, "geometry": {"type": "LineString", "coordinates": [[106.6369743, 10.7617494], [106.6370121, 10.7617519], [106.637049, 10.7617551], [106.6370849, 10.7617588], [106.6371197, 10.761763]]}}, {"type": "Feature", "properties": {"id": "nw-e182", "path": "khu-b-loop", "lengthM": 16.9}, "geometry": {"type": "LineString", "coordinates": [[106.6371197, 10.761763], [106.6371532, 10.7617677], [106.6371853, 10.7617727], [106.6372159, 10.7617781], [106.6372447, 10.7617839], [106.6372718, 10.7617899]]}}, {"type": "Feature", "properties": {"id": "nw-e183", "path": "khu-b-loop", "lengthM": 7.83}, "geometry": {"type": "LineString", "coordinates": [[106.6372718, 10.7617899], [106.6372969, 10.7617961], [106.6373199, 10.7618025], [106.6373407, 10.761809]]}}, {"type": "Feature", "properties": {"id": "nw-e184", "path": "khu-b-loop", "lengthM": 15.73}, "geometry": {"type": "LineString", "coordinates": [[106.6369717, 10.760333], [106.6369606, 10.7603183], [106.6369196, 10.7602713], [106.6368759, 10.760227]]}}, {"type": "Feature", "properties": {"id": "nw-e185", "path": "khu-b-loop", "lengthM": 20.39}, "geometry": {"type": "LineString", "coordinates": [[106.6368759, 10.760227], [106.6368299, 10.7601855], [106.6367816, 10.7601468], [106.6367315, 10.7601108]]}}, {"type": "Feature", "properties": {"id": "nw-e186", "path": "khu-b-loop", "lengthM": 20.15}, "geometry": {"type": "LineString", "coordinates": [[106.6367315, 10.7601108], [106.6366797, 10.7600775], [106.6366266, 10.760047], [106.6365723, 10.7600192]]}}, {"type": "Feature", "properties": {"id": "nw-e187", "path": "khu-b-loop", "lengthM": 21.61}, "geometry": {"type": "LineString", "coordinates": [[106.6365723, 10.7600192], [106.6365172, 10.7599941], [106.6364614, 10.7599718], [106.6364053, 10.7599522], [106.6363888, 10.7599472]]}}, {"type": "Feature", "properties": {"id": "nw-e188", "path": "khu-b-loop", "lengthM": 15.49}, "geometry": {"type": "LineString", "coordinates": [[106.6360708, 10.7598814], [106.6360591, 10.7598808], [106.6360145, 10.7598813], [106.6359714, 10.7598848], [106.6359299, 10.7598913]]}}, {"type": "Feature", "properties": {"id": "nw-e189", "path": "khu-b-loop", "lengthM": 16.74}, "geometry": {"type": "LineString", "coordinates": [[106.6359299, 10.7598913], [106.6358902, 10.7599011], [106.6358525, 10.7599142], [106.6358169, 10.7599308], [106.6357894, 10.7599486]]}}, {"type": "Feature", "properties": {"id": "nw-e190", "path": "khu-b-loop", "lengthM": 12.24}, "geometry": {"type": "LineString", "coordinates": [[106.6357894, 10.7599486], [106.6357647, 10.7599676], [106.6357426, 10.7599881], [106.635723, 10.7600101], [106.6357111, 10.7600267]]}}, {"type": "Feature", "properties": {"id": "nw-e191", "path": "khu-b-loop", "lengthM": 18.64}, "geometry": {"type": "LineString", "coordinates": [[106.6357111, 10.7600267], [106.6357059, 10.7600338], [106.6356912, 10.7600594], [106.6356788, 10.7600871], [106.6356686, 10.760117], [106.6356606, 10.7601493], [106.6356546, 10.7601841]]}}, {"type": "Feature", "properties": {"id": "nw-e192", "path": "khu-b-loop", "lengthM": 164.21}, "geometry": {"type": "LineString", "coordinates": [[106.6356546, 10.7601841], [106.6356505, 10.7602217], [106.6356483, 10.7602621], [106.6356118, 10.7616685]]}}, {"type": "Feature", "properties": {"id": "nw-e193", "path": "khu-b-central", "lengthM": 20.84}, "geometry": {"type": "LineString", "coordinates": [[106.6365024, 10.762318], [106.636551, 10.7623345], [106.6366153, 10.7623561], [106.6366828, 10.7623786]]}}, {"type": "Feature", "properties": {"id": "nw-e194", "path": "khu-b-central", "lengthM": 16.38}, "geometry": {"type": "LineString", "coordinates": [[106.6366828, 10.7623786], [106.636753, 10.7624019], [106.6368249, 10.7624256]]}}, {"type": "Feature", "properties": {"id": "nw-e195", "path": "khu-b-central", "lengthM": 16.8}, "geometry": {"type": "LineString", "coordinates": [[106.6368249, 10.7624256], [106.6368977, 10.7624495], [106.6369708, 10.7624733]]}}, {"type": "Feature", "properties": {"id": "nw-e196", "path": "khu-b-central", "lengthM": 8.33}, "geometry": {"type": "LineString", "coordinates": [[106.6369708, 10.7624733], [106.6370431, 10.7624968]]}}, {"type": "Feature", "properties": {"id": "nw-e197", "path": "main-north", "lengthM": 21.12}, "geometry": {"type": "LineString", "coordinates": [[106.6372965, 10.7658277], [106.6372933, 10.7658423], [106.6372826, 10.7658833], [106.6372755, 10.7659261], [106.6372714, 10.7659706], [106.6372698, 10.7660163]]}}, {"type": "Feature", "properties": {"id": "nw-e198", "path": "north-inner-walk", "lengthM": 17.17}, "geometry": {"type": "LineString", "coordinates": [[106.637432, 10.7660275], [106.6374228, 10.7660699], [106.6374029, 10.7661801]]}}, {"type": "Feature", "properties": {"id": "nw-e199", "path": "north-inner-walk", "lengthM": 18.26}, "geometry": {"type": "LineString", "coordinates": [[106.6374029, 10.7661801], [106.6373875, 10.7662867], [106.6373846, 10.7663441]]}}, {"type": "Feature", "properties": {"id": "nw-e200", "path": "circus-access", "lengthM": 1.57}, "geometry": {"type": "LineString", "coordinates": [[106.6370605, 10.7628022], [106.6370613, 10.7628164]]}}, {"type": "Feature", "properties": {"id": "nw-e201", "path": "main-north", "lengthM": 15.6}, "geometry": {"type": "LineString", "coordinates": [[106.6372698, 10.7660163], [106.6372698, 10.7660163], [106.6372703, 10.7660628], [106.6372725, 10.7661099], [106.6372758, 10.7661572]]}}, {"type": "Feature", "properties": {"id": "nw-e202", "path": "main-north", "lengthM": 15.48}, "geometry": {"type": "LineString", "coordinates": [[106.6372758, 10.7661572], [106.6372799, 10.7662043], [106.6372842, 10.7662509], [106.6372883, 10.7662966]]}}, {"type": "Feature", "properties": {"id": "nw-e203", "path": "main-north", "lengthM": 15.64}, "geometry": {"type": "LineString", "coordinates": [[106.6372883, 10.7662966], [106.6372917, 10.7663411], [106.637294, 10.7663841], [106.6372993, 10.7664376]]}}, {"type": "Feature", "properties": {"id": "nw-e204", "path": "main-north", "lengthM": 16.47}, "geometry": {"type": "LineString", "coordinates": [[106.6372993, 10.7664376], [106.6372992, 10.7664889], [106.6372942, 10.7665381], [106.6372848, 10.7665854]]}}, {"type": "Feature", "properties": {"id": "nw-e205", "path": "main-north", "lengthM": 15.56}, "geometry": {"type": "LineString", "coordinates": [[106.6372848, 10.7665854], [106.6372717, 10.766631], [106.6372555, 10.766675], [106.6372368, 10.7667177]]}}, {"type": "Feature", "properties": {"id": "nw-e206", "path": "main-north", "lengthM": 15.22}, "geometry": {"type": "LineString", "coordinates": [[106.6372368, 10.7667177], [106.637216, 10.7667591], [106.6371939, 10.7667995], [106.637171, 10.7668389]]}}, {"type": "Feature", "properties": {"id": "nw-e207", "path": "main-north", "lengthM": 24.77}, "geometry": {"type": "LineString", "coordinates": [[106.637171, 10.7668389], [106.6371479, 10.7668777], [106.6371251, 10.7669158], [106.6370936, 10.7669769], [106.637065, 10.7670367]]}}, {"type": "Feature", "properties": {"id": "nw-e208", "path": "split", "lengthM": 16.36}, "geometry": {"type": "LineString", "coordinates": [[106.6379771, 10.7642931], [106.6379653, 10.7643203], [106.6379396, 10.7643764], [106.6379151, 10.7644277]]}}, {"type": "Feature", "properties": {"id": "nw-e209", "path": "split", "lengthM": 16.25}, "geometry": {"type": "LineString", "coordinates": [[106.6379151, 10.7644277], [106.6378919, 10.7644749], [106.6378699, 10.7645186], [106.6378493, 10.7645595]]}}, {"type": "Feature", "properties": {"id": "nw-e210", "path": "split", "lengthM": 22.63}, "geometry": {"type": "LineString", "coordinates": [[106.6378493, 10.7645595], [106.63783, 10.7645984], [106.6378122, 10.7646359], [106.6377957, 10.7646727], [106.6377808, 10.7647096], [106.6377673, 10.7647472]]}}, {"type": "Feature", "properties": {"id": "nw-e211", "path": "children-east", "lengthM": 17.94}, "geometry": {"type": "LineString", "coordinates": [[106.6382686, 10.7684551], [106.6383085, 10.7684413], [106.6383657, 10.7684197], [106.6384219, 10.7683976]]}}, {"type": "Feature", "properties": {"id": "nw-e212", "path": "children-east", "lengthM": 20.22}, "geometry": {"type": "LineString", "coordinates": [[106.6384219, 10.7683976], [106.6384787, 10.7683734], [106.638536, 10.7683472], [106.6385898, 10.7683211]]}}, {"type": "Feature", "properties": {"id": "nw-e213", "path": "main-south", "lengthM": 21.27}, "geometry": {"type": "LineString", "coordinates": [[106.6396013, 10.7643949], [106.6395992, 10.7643815], [106.6395887, 10.7643224], [106.6395778, 10.764266], [106.6395649, 10.764206]]}}, {"type": "Feature", "properties": {"id": "nw-e214", "path": "main-south", "lengthM": 11.76}, "geometry": {"type": "LineString", "coordinates": [[106.6395649, 10.764206], [106.6395511, 10.7641469], [106.6395398, 10.7641026]]}}, {"type": "Feature", "properties": {"id": "nw-e215", "path": "khu-b-loop", "lengthM": 15.91}, "geometry": {"type": "LineString", "coordinates": [[106.6363888, 10.7599472], [106.6363491, 10.7599353], [106.6362989, 10.7599199], [106.6362492, 10.7599069]]}}, {"type": "Feature", "properties": {"id": "nw-e216", "path": "khu-b-loop", "lengthM": 19.74}, "geometry": {"type": "LineString", "coordinates": [[106.6362492, 10.7599069], [106.6362002, 10.7598964], [106.6361521, 10.7598885], [106.636105, 10.7598832], [106.6360708, 10.7598814]]}}, {"type": "Feature", "properties": {"id": "nw-e217", "path": "khu-b-loop", "lengthM": 19.06}, "geometry": {"type": "LineString", "coordinates": [[106.6371963, 10.7610596], [106.6371962, 10.761046], [106.6371919, 10.7609656], [106.6371841, 10.7608877]]}}, {"type": "Feature", "properties": {"id": "nw-e218", "path": "khu-b-loop", "lengthM": 16.59}, "geometry": {"type": "LineString", "coordinates": [[106.6371841, 10.7608877], [106.6371728, 10.7608125], [106.637158, 10.7607399]]}}, {"type": "Feature", "properties": {"id": "nw-e219", "path": "khu-b-loop", "lengthM": 15.7}, "geometry": {"type": "LineString", "coordinates": [[106.637158, 10.7607399], [106.6371398, 10.7606703], [106.6371182, 10.7606035]]}}, {"type": "Feature", "properties": {"id": "nw-e220", "path": "khu-b-loop", "lengthM": 22.12}, "geometry": {"type": "LineString", "coordinates": [[106.6371182, 10.7606035], [106.6370933, 10.7605399], [106.637065, 10.7604794], [106.6370335, 10.7604223]]}}, {"type": "Feature", "properties": {"id": "nw-e221", "path": "khu-b-loop", "lengthM": 11.97}, "geometry": {"type": "LineString", "coordinates": [[106.6370335, 10.7604223], [106.6369987, 10.7603685], [106.6369717, 10.760333]]}}, {"type": "Feature", "properties": {"id": "nw-e222", "path": "main-south", "lengthM": 17.18}, "geometry": {"type": "LineString", "coordinates": [[106.6396495, 10.7647952], [106.6396484, 10.764779], [106.6396423, 10.7647093], [106.6396352, 10.7646405]]}}, {"type": "Feature", "properties": {"id": "nw-e223", "path": "main-south", "lengthM": 22.0}, "geometry": {"type": "LineString", "coordinates": [[106.6396352, 10.7646405], [106.6396273, 10.764573], [106.6396186, 10.7645072], [106.6396092, 10.7644433]]}}, {"type": "Feature", "properties": {"id": "nw-e224", "path": "nam-tu-loop", "lengthM": 17.76}, "geometry": {"type": "LineString", "coordinates": [[106.6402466, 10.7657827], [106.6403759, 10.7657924], [106.6403686, 10.7657608]]}}, {"type": "Feature", "properties": {"id": "nw-e225", "path": "nam-tu-loop", "lengthM": 17.22}, "geometry": {"type": "LineString", "coordinates": [[106.6403686, 10.7657608], [106.6403619, 10.7657294], [106.640356, 10.7656982], [106.6403511, 10.7656673], [106.6403472, 10.7656369], [106.6403446, 10.765607]]}}, {"type": "Feature", "properties": {"id": "nw-e226", "path": "nam-tu-loop", "lengthM": 9.45}, "geometry": {"type": "LineString", "coordinates": [[106.6403446, 10.765607], [106.6403434, 10.7655778], [106.6403437, 10.7655493], [106.6403458, 10.7655217]]}}, {"type": "Feature", "properties": {"id": "nw-e227", "path": "gate-1-east-avenue", "lengthM": 17.44}, "geometry": {"type": "LineString", "coordinates": [[106.6406647, 10.76611], [106.6405055, 10.7660993]]}}, {"type": "Feature", "properties": {"id": "nw-e228", "path": "main-north", "lengthM": 17.82}, "geometry": {"type": "LineString", "coordinates": [[106.6376177, 10.7650283], [106.6376104, 10.7650424], [106.6375889, 10.7650857], [106.6375681, 10.7651295], [106.6375479, 10.7651739]]}}, {"type": "Feature", "properties": {"id": "nw-e229", "path": "main-north", "lengthM": 16.54}, "geometry": {"type": "LineString", "coordinates": [[106.6375479, 10.7651739], [106.6375282, 10.7652191], [106.6375091, 10.7652651], [106.6374904, 10.7653123]]}}, {"type": "Feature", "properties": {"id": "nw-e230", "path": "main-north", "lengthM": 16.13}, "geometry": {"type": "LineString", "coordinates": [[106.6374904, 10.7653123], [106.6374695, 10.7653577], [106.6374491, 10.7654019], [106.6374294, 10.7654451]]}}, {"type": "Feature", "properties": {"id": "nw-e231", "path": "main-north", "lengthM": 13.4}, "geometry": {"type": "LineString", "coordinates": [[106.6374294, 10.7654451], [106.6374105, 10.7654877], [106.6373923, 10.76553], [106.6373814, 10.7655565]]}}, {"type": "Feature", "properties": {"id": "nw-e232", "path": "gate-2-access", "lengthM": 13.02}, "geometry": {"type": "LineString", "coordinates": [[106.637399, 10.7685201], [106.637393, 10.7686378]]}}, {"type": "Feature", "properties": {"id": "nw-e233", "path": "north-inner-walk", "lengthM": 24.96}, "geometry": {"type": "LineString", "coordinates": [[106.6383969, 10.7636559], [106.6383844, 10.7636793], [106.6383394, 10.7637682], [106.6382957, 10.7638582]]}}, {"type": "Feature", "properties": {"id": "nw-e234", "path": "north-inner-walk", "lengthM": 22.5}, "geometry": {"type": "LineString", "coordinates": [[106.6382957, 10.7638582], [106.6382527, 10.7639498], [106.63821, 10.7640432]]}}, {"type": "Feature", "properties": {"id": "nw-e235", "path": "north-inner-walk", "lengthM": 23.46}, "geometry": {"type": "LineString", "coordinates": [[106.63821, 10.7640432], [106.6381671, 10.7641389], [106.6381233, 10.7642373]]}}, {"type": "Feature", "properties": {"id": "nw-e236", "path": "north-inner-walk", "lengthM": 24.93}, "geometry": {"type": "LineString", "coordinates": [[106.6381233, 10.7642373], [106.6380783, 10.7643387], [106.6380314, 10.7644435]]}}, {"type": "Feature", "properties": {"id": "nw-e237", "path": "north-inner-walk", "lengthM": 26.89}, "geometry": {"type": "LineString", "coordinates": [[106.6380314, 10.7644435], [106.6379821, 10.7645522], [106.63793, 10.764665]]}}, {"type": "Feature", "properties": {"id": "nw-e238", "path": "north-inner-walk", "lengthM": 31.74}, "geometry": {"type": "LineString", "coordinates": [[106.63793, 10.764665], [106.6378745, 10.7647825], [106.6378087, 10.7649258]]}}, {"type": "Feature", "properties": {"id": "nw-e239", "path": "north-inner-walk", "lengthM": 16.89}, "geometry": {"type": "LineString", "coordinates": [[106.6378087, 10.7649258], [106.6377475, 10.7650661]]}}, {"type": "Feature", "properties": {"id": "nw-e240", "path": "north-inner-walk", "lengthM": 16.37}, "geometry": {"type": "LineString", "coordinates": [[106.6377475, 10.7650661], [106.6376909, 10.7652031]]}}, {"type": "Feature", "properties": {"id": "nw-e241", "path": "north-inner-walk", "lengthM": 15.85}, "geometry": {"type": "LineString", "coordinates": [[106.6376909, 10.7652031], [106.6376388, 10.7653369]]}}, {"type": "Feature", "properties": {"id": "nw-e242", "path": "north-inner-walk", "lengthM": 15.34}, "geometry": {"type": "LineString", "coordinates": [[106.6376388, 10.7653369], [106.6375914, 10.7654675]]}}, {"type": "Feature", "properties": {"id": "nw-e243", "path": "north-inner-walk", "lengthM": 29.16}, "geometry": {"type": "LineString", "coordinates": [[106.6375914, 10.7654675], [106.6375485, 10.7655947], [106.6375102, 10.7657186]]}}, {"type": "Feature", "properties": {"id": "nw-e244", "path": "north-inner-walk", "lengthM": 27.16}, "geometry": {"type": "LineString", "coordinates": [[106.6375102, 10.7657186], [106.6374765, 10.7658391], [106.6374474, 10.7659562]]}}, {"type": "Feature", "properties": {"id": "nw-e245", "path": "north-inner-walk", "lengthM": 8.06}, "geometry": {"type": "LineString", "coordinates": [[106.6374474, 10.7659562], [106.637432, 10.7660275]]}}, {"type": "Feature", "properties": {"id": "nw-e246", "path": "children-east", "lengthM": 21.98}, "geometry": {"type": "LineString", "coordinates": [[106.6385898, 10.7683211], [106.6385936, 10.7683193], [106.6386512, 10.7682897], [106.6387089, 10.7682586], [106.6387664, 10.7682262]]}}, {"type": "Feature", "properties": {"id": "nw-e247", "path": "children-east", "lengthM": 21.84}, "geometry": {"type": "LineString", "coordinates": [[106.6387664, 10.7682262], [106.6388235, 10.7681925], [106.6388801, 10.7681577], [106.638936, 10.768122]]}}, {"type": "Feature", "properties": {"id": "nw-e248", "path": "children-east", "lengthM": 22.8}, "geometry": {"type": "LineString", "coordinates": [[106.638936, 10.768122], [106.6389911, 10.7680855], [106.6390451, 10.7680483], [106.6391048, 10.7680013]]}}, {"type": "Feature", "properties": {"id": "nw-e249", "path": "children-east", "lengthM": 14.93}, "geometry": {"type": "LineString", "coordinates": [[106.6391048, 10.7680013], [106.6391623, 10.7679534], [106.639208, 10.7679129]]}}, {"type": "Feature", "properties": {"id": "nw-e250", "path": "gate-2-access", "lengthM": 12.02}, "geometry": {"type": "LineString", "coordinates": [[106.637393, 10.7686378], [106.6373874, 10.7687463]]}}, {"type": "Feature", "properties": {"id": "nw-e251", "path": "gate-1A-access", "lengthM": 18.4}, "geometry": {"type": "LineString", "coordinates": [[106.6411547, 10.7663508], [106.6411588, 10.766374], [106.6411644, 10.7664076], [106.6411695, 10.7664422], [106.641174, 10.7664781], [106.6411776, 10.7665156]]}}, {"type": "Feature", "properties": {"id": "nw-e252", "path": "gate-1A-access", "lengthM": 64.95}, "geometry": {"type": "LineString", "coordinates": [[106.6411776, 10.7665156], [106.6411799, 10.7665552], [106.6409721, 10.767063]]}}, {"type": "Feature", "properties": {"id": "nw-e253", "path": "garden-west", "lengthM": 1.26}, "geometry": {"type": "LineString", "coordinates": [[106.6401308, 10.764521], [106.6401308, 10.764521], [106.640142, 10.7645234]]}}, {"type": "Feature", "properties": {"id": "nw-e254", "path": "garden-west", "lengthM": 17.24}, "geometry": {"type": "LineString", "coordinates": [[106.640142, 10.7645234], [106.6401665, 10.7645287], [106.6402004, 10.764537], [106.6402327, 10.7645461], [106.6402636, 10.7645559], [106.6402932, 10.7645669]]}}, {"type": "Feature", "properties": {"id": "nw-e255", "path": "garden-west", "lengthM": 16.98}, "geometry": {"type": "LineString", "coordinates": [[106.6402932, 10.7645669], [106.6403217, 10.764579], [106.6403491, 10.7645926], [106.6403757, 10.7646077], [106.6404017, 10.7646246], [106.6404271, 10.7646435]]}}, {"type": "Feature", "properties": {"id": "nw-e256", "path": "garden-west", "lengthM": 22.28}, "geometry": {"type": "LineString", "coordinates": [[106.6404271, 10.7646435], [106.6404522, 10.7646645], [106.640477, 10.7646878], [106.6405571, 10.7647973]]}}]}