{
  "type": "FeatureCollection",
  "name": "damsen_osm_walkways_research_snapshot",
  "attribution": "© OpenStreetMap contributors",
  "source_url": "https://www.openstreetmap.org/way/32735046",
  "retrieved_at": "2026-09-27",
  "field_verified": false,
  "navigation_use": "research_reference_only",
  "features": [
    {
      "type": "Feature",
      "id": "way/32584955",
      "properties": {
        "osm_id": 32584955,
        "highway": "footway",
        "name": null,
        "surface": null,
        "wheelchair": "unknown",
        "source": "OpenStreetMap",
        "field_verified": false,
        "navigation_use": "research_reference_only"
      },
      "geometry": {
        "type": "LineString",
        "coordinates": [
          [
            106.6396013,
            10.7640091
          ],
          [
            106.6392633,
            10.7637107
          ],
          [
            106.6389149,
            10.7634739
          ],
          [
            106.6388724,
            10.7634492
          ],
          [
            106.6388235,
            10.7634269
          ],
          [
            106.6387725,
            10.7634097
          ],
          [
            106.6384936,
            10.7633414
          ],
          [
            106.6384137,
            10.7635071
          ],
          [
            106.6383605,
            10.7636934
          ],
          [
            106.6382542,
            10.7637847
          ],
          [
            106.6379953,
            10.763862
          ],
          [
            106.6379165,
            10.7638856
          ],
          [
            106.6376943,
            10.7639611
          ],
          [
            106.6375791,
            10.7640525
          ],
          [
            106.6375084,
            10.7641664
          ],
          [
            106.6374857,
            10.7643172
          ],
          [
            106.6374542,
            10.7646551
          ],
          [
            106.6374278,
            10.7648654
          ],
          [
            106.6373847,
            10.7651556
          ],
          [
            106.6372888,
            10.7655277
          ],
          [
            106.6372632,
            10.7657342
          ],
          [
            106.6372733,
            10.765957
          ],
          [
            106.6372736,
            10.7660183
          ],
          [
            106.6373327,
            10.7662504
          ],
          [
            106.6373534,
            10.7663346
          ],
          [
            106.6374151,
            10.7665637
          ],
          [
            106.6374237,
            10.7666428
          ],
          [
            106.6374035,
            10.7667638
          ],
          [
            106.6373923,
            10.7667937
          ],
          [
            106.6373828,
            10.766819
          ],
          [
            106.6373649,
            10.7668664
          ],
          [
            106.6372897,
            10.7669893
          ],
          [
            106.6372155,
            10.7670774
          ],
          [
            106.6371658,
            10.7671186
          ],
          [
            106.6370644,
            10.7671454
          ],
          [
            106.6370382,
            10.7672673
          ],
          [
            106.6369743,
            10.7675993
          ],
          [
            106.6369661,
            10.7677555
          ],
          [
            106.6369532,
            10.7678992
          ],
          [
            106.6369752,
            10.7680157
          ],
          [
            106.6370672,
            10.7681225
          ],
          [
            106.6371426,
            10.7681373
          ],
          [
            106.6372851,
            10.768153
          ],
          [
            106.6373874,
            10.7681401
          ],
          [
            106.6374898,
            10.7681272
          ],
          [
            106.6376054,
            10.7681018
          ],
          [
            106.6376942,
            10.76806
          ],
          [
            106.6379245,
            10.7678524
          ],
          [
            106.6381639,
            10.7676695
          ],
          [
            106.63835,
            10.76752
          ],
          [
            106.6385366,
            10.7674364
          ],
          [
            106.6387855,
            10.7673773
          ],
          [
            106.6391147,
            10.7673425
          ],
          [
            106.6393441,
            10.7673267
          ],
          [
            106.6395913,
            10.7673354
          ],
          [
            106.6396919,
            10.7671758
          ],
          [
            106.6397581,
            10.767205
          ],
          [
            106.6397147,
            10.7667823
          ],
          [
            106.6397129,
            10.7665555
          ],
          [
            106.6397074,
            10.7663096
          ],
          [
            106.6396972,
            10.7661237
          ],
          [
            106.6396952,
            10.7660011
          ],
          [
            106.6396926,
            10.7659449
          ],
          [
            106.6396935,
            10.7658741
          ],
          [
            106.639688,
            10.7657668
          ],
          [
            106.6396802,
            10.7656158
          ],
          [
            106.6396584,
            10.7651716
          ],
          [
            106.6396389,
            10.7647748
          ],
          [
            106.6396013,
            10.7640091
          ]
        ]
      }
    },
    {
      "type": "Feature",
      "id": "way/112010445",
      "properties": {
        "osm_id": 112010445,
        "highway": "path",
        "name": null,
        "surface": null,
        "wheelchair": "unknown",
        "source": "OpenStreetMap",
        "field_verified": false,
        "navigation_use": "research_reference_only"
      },
      "geometry": {
        "type": "LineString",
        "coordinates": [
          [
            106.6380976,
            10.7644958
          ],
          [
            106.6387608,
            10.764801
          ],
          [
            106.638784,
            10.7648155
          ],
          [
            106.6388019,
            10.7648331
          ],
          [
            106.6389013,
            10.7649535
          ],
          [
            106.6389268,
            10.7649283
          ],
          [
            106.6389327,
            10.7649271
          ],
          [
            106.6389383,
            10.7649296
          ],
          [
            106.6389749,
            10.7649766
          ],
          [
            106.6389795,
            10.764979
          ],
          [
            106.6389843,
            10.764978
          ],
          [
            106.6390276,
            10.764933
          ],
          [
            106.6390334,
            10.7649312
          ],
          [
            106.6390389,
            10.7649335
          ],
          [
            106.6390953,
            10.7649917
          ],
          [
            106.6390969,
            10.7649995
          ],
          [
            106.6390941,
            10.7650075
          ],
          [
            106.6390414,
            10.7650523
          ],
          [
            106.6391097,
            10.7651271
          ],
          [
            106.6391103,
            10.7651329
          ],
          [
            106.6391086,
            10.7651375
          ],
          [
            106.6390652,
            10.7651721
          ],
          [
            106.6390629,
            10.7651776
          ],
          [
            106.6390636,
            10.7651842
          ],
          [
            106.6391421,
            10.765288
          ],
          [
            106.6391651,
            10.765299
          ],
          [
            106.6391889,
            10.7653036
          ],
          [
            106.6392671,
            10.7652985
          ]
        ]
      }
    },
    {
      "type": "Feature",
      "id": "way/112010455",
      "properties": {
        "osm_id": 112010455,
        "highway": "path",
        "name": null,
        "surface": null,
        "wheelchair": "unknown",
        "source": "OpenStreetMap",
        "field_verified": false,
        "navigation_use": "research_reference_only"
      },
      "geometry": {
        "type": "LineString",
        "coordinates": [
          [
            106.6392157,
            10.7641198
          ],
          [
            106.6390528,
            10.7638332
          ],
          [
            106.6390297,
            10.7637974
          ],
          [
            106.6389998,
            10.7637668
          ],
          [
            106.6389643,
            10.7637427
          ],
          [
            106.6389247,
            10.7637259
          ],
          [
            106.6388859,
            10.7637175
          ],
          [
            106.6388462,
            10.7637162
          ],
          [
            106.638807,
            10.7637221
          ],
          [
            106.6387694,
            10.7637349
          ],
          [
            106.6386579,
            10.7637832
          ],
          [
            106.6385794,
            10.7638082
          ],
          [
            106.6384805,
            10.7638334
          ],
          [
            106.6383802,
            10.7638523
          ],
          [
            106.6383056,
            10.763893
          ],
          [
            106.6382283,
            10.7639662
          ],
          [
            106.6381647,
            10.7640477
          ],
          [
            106.6380984,
            10.7641644
          ],
          [
            106.6380708,
            10.7642539
          ],
          [
            106.6380376,
            10.7642974
          ],
          [
            106.6379907,
            10.7643164
          ],
          [
            106.6379713,
            10.7644195
          ],
          [
            106.6379465,
            10.7644792
          ],
          [
            106.6379354,
            10.7645091
          ],
          [
            106.6378332,
            10.7645823
          ],
          [
            106.6377697,
            10.7646882
          ],
          [
            106.6377255,
            10.7647696
          ],
          [
            106.6377227,
            10.7647995
          ]
        ]
      }
    },
    {
      "type": "Feature",
      "id": "way/112010463",
      "properties": {
        "osm_id": 112010463,
        "highway": "path",
        "name": null,
        "surface": null,
        "wheelchair": "unknown",
        "source": "OpenStreetMap",
        "field_verified": false,
        "navigation_use": "research_reference_only"
      },
      "geometry": {
        "type": "LineString",
        "coordinates": [
          [
            106.6392157,
            10.7641198
          ],
          [
            106.6393867,
            10.7644057
          ],
          [
            106.6394229,
            10.7644712
          ],
          [
            106.6394507,
            10.7645405
          ],
          [
            106.6394699,
            10.7646125
          ],
          [
            106.6394792,
            10.7646764
          ],
          [
            106.6394817,
            10.764741
          ],
          [
            106.6394715,
            10.764984
          ],
          [
            106.6394604,
            10.765098
          ],
          [
            106.6394135,
            10.7651957
          ],
          [
            106.6393914,
            10.7652527
          ],
          [
            106.6393748,
            10.7653206
          ],
          [
            106.6393251,
            10.7654319
          ],
          [
            106.6392809,
            10.765554
          ],
          [
            106.6392256,
            10.7656381
          ],
          [
            106.6391869,
            10.7657223
          ],
          [
            106.6391704,
            10.7658145
          ],
          [
            106.6391593,
            10.7658634
          ],
          [
            106.639145,
            10.7658836
          ],
          [
            106.6391192,
            10.7658947
          ]
        ]
      }
    },
    {
      "type": "Feature",
      "id": "way/112010464",
      "properties": {
        "osm_id": 112010464,
        "highway": "path",
        "name": null,
        "surface": null,
        "wheelchair": "unknown",
        "source": "OpenStreetMap",
        "field_verified": false,
        "navigation_use": "research_reference_only"
      },
      "geometry": {
        "type": "LineString",
        "coordinates": [
          [
            106.6384936,
            10.7633414
          ],
          [
            106.6383986,
            10.7633022
          ],
          [
            106.6383601,
            10.7632798
          ],
          [
            106.6383097,
            10.7632372
          ],
          [
            106.6381888,
            10.7631117
          ],
          [
            106.6381577,
            10.7629759
          ],
          [
            106.6381405,
            10.7628097
          ],
          [
            106.6381301,
            10.762691
          ],
          [
            106.6381232,
            10.7626028
          ],
          [
            106.6380852,
            10.7624229
          ]
        ]
      }
    },
    {
      "type": "Feature",
      "id": "way/112010472",
      "properties": {
        "osm_id": 112010472,
        "highway": "path",
        "name": null,
        "surface": null,
        "wheelchair": "unknown",
        "source": "OpenStreetMap",
        "field_verified": false,
        "navigation_use": "research_reference_only"
      },
      "geometry": {
        "type": "LineString",
        "coordinates": [
          [
            106.6391593,
            10.7658634
          ],
          [
            106.6392615,
            10.7659312
          ],
          [
            106.6394494,
            10.7659638
          ],
          [
            106.6396952,
            10.7660011
          ]
        ]
      }
    },
    {
      "type": "Feature",
      "id": "way/112010475",
      "properties": {
        "osm_id": 112010475,
        "highway": "path",
        "name": null,
        "surface": null,
        "wheelchair": "unknown",
        "source": "OpenStreetMap",
        "field_verified": false,
        "navigation_use": "research_reference_only"
      },
      "geometry": {
        "type": "LineString",
        "coordinates": [
          [
            106.6357234,
            10.7616875
          ],
          [
            106.6358716,
            10.7616494
          ],
          [
            106.6361582,
            10.7615985
          ],
          [
            106.6363585,
            10.761568
          ],
          [
            106.6365554,
            10.7615918
          ],
          [
            106.6367557,
            10.7616223
          ],
          [
            106.6369974,
            10.7616528
          ],
          [
            106.6370302,
            10.7616609
          ],
          [
            106.6372322,
            10.7617105
          ],
          [
            106.6374014,
            10.7617648
          ],
          [
            106.6375016,
            10.7618326
          ],
          [
            106.6375499,
            10.7619039
          ],
          [
            106.6375603,
            10.7619717
          ],
          [
            106.6375258,
            10.7621074
          ],
          [
            106.6374498,
            10.7621922
          ],
          [
            106.6373289,
            10.762216
          ],
          [
            106.6371321,
            10.762199
          ],
          [
            106.6369629,
            10.7621787
          ],
          [
            106.6369041,
            10.7621889
          ],
          [
            106.636949,
            10.7622465
          ],
          [
            106.6370008,
            10.762311
          ],
          [
            106.6369663,
            10.7623551
          ],
          [
            106.6368903,
            10.7623483
          ],
          [
            106.6368109,
            10.762294
          ],
          [
            106.6367522,
            10.7622296
          ],
          [
            106.6366279,
            10.7621922
          ],
          [
            106.6365415,
            10.7621414
          ],
          [
            106.6364725,
            10.7621108
          ],
          [
            106.6363516,
            10.7620769
          ],
          [
            106.6362411,
            10.7620803
          ],
          [
            106.6361582,
            10.7621549
          ],
          [
            106.6360753,
            10.7621956
          ],
          [
            106.6359321,
            10.7621956
          ],
          [
            106.6358139,
            10.7621764
          ]
        ]
      }
    },
    {
      "type": "Feature",
      "id": "way/366109606",
      "properties": {
        "osm_id": 366109606,
        "highway": "footway",
        "name": null,
        "surface": null,
        "wheelchair": "unknown",
        "source": "OpenStreetMap",
        "field_verified": false,
        "navigation_use": "research_reference_only"
      },
      "geometry": {
        "type": "LineString",
        "coordinates": [
          [
            106.6418138,
            10.7661053
          ],
          [
            106.6418258,
            10.7661062
          ],
          [
            106.6422195,
            10.7661361
          ]
        ]
      }
    },
    {
      "type": "Feature",
      "id": "way/366109607",
      "properties": {
        "osm_id": 366109607,
        "highway": "footway",
        "name": null,
        "surface": null,
        "wheelchair": "unknown",
        "source": "OpenStreetMap",
        "field_verified": false,
        "navigation_use": "research_reference_only"
      },
      "geometry": {
        "type": "LineString",
        "coordinates": [
          [
            106.6418138,
            10.7661053
          ],
          [
            106.6418069,
            10.7661509
          ],
          [
            106.6406945,
            10.7660671
          ],
          [
            106.6396952,
            10.7660011
          ]
        ]
      }
    },
    {
      "type": "Feature",
      "id": "way/366109608",
      "properties": {
        "osm_id": 366109608,
        "highway": "footway",
        "name": null,
        "surface": null,
        "wheelchair": "unknown",
        "source": "OpenStreetMap",
        "field_verified": false,
        "navigation_use": "research_reference_only"
      },
      "geometry": {
        "type": "LineString",
        "coordinates": [
          [
            106.6396935,
            10.7658741
          ],
          [
            106.6402109,
            10.7659134
          ],
          [
            106.6406941,
            10.7659389
          ],
          [
            106.6418247,
            10.7659986
          ],
          [
            106.6418138,
            10.7661053
          ]
        ]
      }
    },
    {
      "type": "Feature",
      "id": "way/610069709",
      "properties": {
        "osm_id": 610069709,
        "highway": "path",
        "name": null,
        "surface": null,
        "wheelchair": "unknown",
        "source": "OpenStreetMap",
        "field_verified": false,
        "navigation_use": "research_reference_only"
      },
      "geometry": {
        "type": "LineString",
        "coordinates": [
          [
            106.6366813,
            10.7659624
          ],
          [
            106.6366884,
            10.7655361
          ]
        ]
      }
    },
    {
      "type": "Feature",
      "id": "way/610069710",
      "properties": {
        "osm_id": 610069710,
        "highway": "path",
        "name": null,
        "surface": null,
        "wheelchair": "unknown",
        "source": "OpenStreetMap",
        "field_verified": false,
        "navigation_use": "research_reference_only"
      },
      "geometry": {
        "type": "LineString",
        "coordinates": [
          [
            106.6371529,
            10.766013
          ],
          [
            106.637021,
            10.7660051
          ],
          [
            106.6368923,
            10.7660051
          ],
          [
            106.6367903,
            10.7659735
          ],
          [
            106.6366813,
            10.7659624
          ],
          [
            106.6366348,
            10.7659577
          ],
          [
            106.6365087,
            10.7659577
          ],
          [
            106.6364666,
            10.766045
          ],
          [
            106.6364669,
            10.7661973
          ],
          [
            106.6364775,
            10.7662657
          ],
          [
            106.6365184,
            10.766294
          ],
          [
            106.63684,
            10.7663082
          ],
          [
            106.6373534,
            10.7663346
          ]
        ]
      }
    },
    {
      "type": "Feature",
      "id": "way/610073013",
      "properties": {
        "osm_id": 610073013,
        "highway": "path",
        "name": null,
        "surface": null,
        "wheelchair": "unknown",
        "source": "OpenStreetMap",
        "field_verified": false,
        "navigation_use": "research_reference_only"
      },
      "geometry": {
        "type": "LineString",
        "coordinates": [
          [
            106.6403433,
            10.7651366
          ],
          [
            106.6404851,
            10.7649788
          ],
          [
            106.6405595,
            10.7649015
          ],
          [
            106.6405697,
            10.7648908
          ],
          [
            106.6406943,
            10.7647614
          ]
        ]
      }
    },
    {
      "type": "Feature",
      "id": "way/610073016",
      "properties": {
        "osm_id": 610073016,
        "highway": "path",
        "name": null,
        "surface": null,
        "wheelchair": "unknown",
        "source": "OpenStreetMap",
        "field_verified": false,
        "navigation_use": "research_reference_only"
      },
      "geometry": {
        "type": "LineString",
        "coordinates": [
          [
            106.6399191,
            10.7649841
          ],
          [
            106.6398601,
            10.7650579
          ],
          [
            106.639832,
            10.7651
          ],
          [
            106.6398188,
            10.7651619
          ]
        ]
      }
    },
    {
      "type": "Feature",
      "id": "way/610073017",
      "properties": {
        "osm_id": 610073017,
        "highway": "path",
        "name": null,
        "surface": null,
        "wheelchair": "unknown",
        "source": "OpenStreetMap",
        "field_verified": false,
        "navigation_use": "research_reference_only"
      },
      "geometry": {
        "type": "LineString",
        "coordinates": [
          [
            106.639844,
            10.7645348
          ],
          [
            106.6398346,
            10.764577
          ],
          [
            106.6397877,
            10.7646165
          ],
          [
            106.6397582,
            10.7646547
          ],
          [
            106.6397528,
            10.7647061
          ],
          [
            106.6397434,
            10.764739
          ]
        ]
      }
    },
    {
      "type": "Feature",
      "id": "way/610073019",
      "properties": {
        "osm_id": 610073019,
        "highway": "path",
        "name": null,
        "surface": null,
        "wheelchair": "unknown",
        "source": "OpenStreetMap",
        "field_verified": false,
        "navigation_use": "research_reference_only"
      },
      "geometry": {
        "type": "LineString",
        "coordinates": [
          [
            106.6404703,
            10.7648602
          ],
          [
            106.6404515,
            10.7648009
          ],
          [
            106.6404475,
            10.7647812
          ],
          [
            106.6404583,
            10.764743
          ],
          [
            106.640465,
            10.7646995
          ],
          [
            106.6404596,
            10.7646626
          ]
        ]
      }
    },
    {
      "type": "Feature",
      "id": "way/610073020",
      "properties": {
        "osm_id": 610073020,
        "highway": "path",
        "name": null,
        "surface": null,
        "wheelchair": "unknown",
        "source": "OpenStreetMap",
        "field_verified": false,
        "navigation_use": "research_reference_only"
      },
      "geometry": {
        "type": "LineString",
        "coordinates": [
          [
            106.6407922,
            10.7648405
          ],
          [
            106.6407412,
            10.7649024
          ],
          [
            106.640701,
            10.7649494
          ]
        ]
      }
    },
    {
      "type": "Feature",
      "id": "way/610073022",
      "properties": {
        "osm_id": 610073022,
        "highway": "path",
        "name": null,
        "surface": null,
        "wheelchair": "unknown",
        "source": "OpenStreetMap",
        "field_verified": false,
        "navigation_use": "research_reference_only"
      },
      "geometry": {
        "type": "LineString",
        "coordinates": [
          [
            106.6399661,
            10.7646244
          ],
          [
            106.6399701,
            10.7646652
          ],
          [
            106.6399607,
            10.7646969
          ],
          [
            106.6399205,
            10.7647232
          ],
          [
            106.6398668,
            10.7647548
          ],
          [
            106.639832,
            10.7647667
          ],
          [
            106.6397837,
            10.7647469
          ],
          [
            106.6397434,
            10.764739
          ],
          [
            106.6396389,
            10.7647748
          ]
        ]
      }
    },
    {
      "type": "Feature",
      "id": "way/610073023",
      "properties": {
        "osm_id": 610073023,
        "highway": "path",
        "name": null,
        "surface": null,
        "wheelchair": "unknown",
        "source": "OpenStreetMap",
        "field_verified": false,
        "navigation_use": "research_reference_only"
      },
      "geometry": {
        "type": "LineString",
        "coordinates": [
          [
            106.6404837,
            10.7651817
          ],
          [
            106.6404194,
            10.765241
          ],
          [
            106.6403939,
            10.7653042
          ]
        ]
      }
    },
    {
      "type": "Feature",
      "id": "way/610073024",
      "properties": {
        "osm_id": 610073024,
        "highway": "path",
        "name": null,
        "surface": null,
        "wheelchair": "unknown",
        "source": "OpenStreetMap",
        "field_verified": false,
        "navigation_use": "research_reference_only"
      },
      "geometry": {
        "type": "LineString",
        "coordinates": [
          [
            106.6410175,
            10.7650816
          ],
          [
            106.6409317,
            10.7650065
          ],
          [
            106.640874,
            10.7649775
          ],
          [
            106.6407587,
            10.7649538
          ],
          [
            106.640701,
            10.7649494
          ],
          [
            106.6406715,
            10.7649472
          ],
          [
            106.6406326,
            10.7649301
          ],
          [
            106.6406004,
            10.7649037
          ],
          [
            106.6405697,
            10.7648908
          ]
        ]
      }
    },
    {
      "type": "Feature",
      "id": "way/610073026",
      "properties": {
        "osm_id": 610073026,
        "highway": "path",
        "name": null,
        "surface": null,
        "wheelchair": "unknown",
        "source": "OpenStreetMap",
        "field_verified": false,
        "navigation_use": "research_reference_only"
      },
      "geometry": {
        "type": "LineString",
        "coordinates": [
          [
            106.6405697,
            10.7648908
          ],
          [
            106.6405508,
            10.7648378
          ],
          [
            106.6405481,
            10.764768
          ],
          [
            106.6404891,
            10.764689
          ],
          [
            106.6404596,
            10.7646626
          ]
        ]
      }
    },
    {
      "type": "Feature",
      "id": "way/610073028",
      "properties": {
        "osm_id": 610073028,
        "highway": "path",
        "name": null,
        "surface": null,
        "wheelchair": "unknown",
        "source": "OpenStreetMap",
        "field_verified": false,
        "navigation_use": "research_reference_only"
      },
      "geometry": {
        "type": "LineString",
        "coordinates": [
          [
            106.639688,
            10.7657668
          ],
          [
            106.6398065,
            10.7656744
          ],
          [
            106.6400157,
            10.7654729
          ],
          [
            106.6402718,
            10.765187
          ],
          [
            106.6403171,
            10.765126
          ]
        ]
      }
    },
    {
      "type": "Feature",
      "id": "way/610073029",
      "properties": {
        "osm_id": 610073029,
        "highway": "path",
        "name": null,
        "surface": null,
        "wheelchair": "unknown",
        "source": "OpenStreetMap",
        "field_verified": false,
        "navigation_use": "research_reference_only"
      },
      "geometry": {
        "type": "LineString",
        "coordinates": [
          [
            106.6406945,
            10.7660671
          ],
          [
            106.6406941,
            10.7659389
          ]
        ]
      }
    },
    {
      "type": "Feature",
      "id": "way/610073031",
      "properties": {
        "osm_id": 610073031,
        "highway": "path",
        "name": null,
        "surface": null,
        "wheelchair": "unknown",
        "source": "OpenStreetMap",
        "field_verified": false,
        "navigation_use": "research_reference_only"
      },
      "geometry": {
        "type": "LineString",
        "coordinates": [
          [
            106.6406941,
            10.7659389
          ],
          [
            106.640709,
            10.7657983
          ],
          [
            106.6407815,
            10.7657838
          ],
          [
            106.6409665,
            10.7657285
          ],
          [
            106.6410282,
            10.7656863
          ],
          [
            106.6410738,
            10.7655941
          ],
          [
            106.6410685,
            10.7655282
          ],
          [
            106.641055,
            10.7654347
          ],
          [
            106.6410309,
            10.7653477
          ],
          [
            106.6409853,
            10.765266
          ],
          [
            106.6409464,
            10.7652278
          ],
          [
            106.640878,
            10.7651369
          ],
          [
            106.6408364,
            10.765104
          ],
          [
            106.6407868,
            10.7650921
          ],
          [
            106.6407064,
            10.7650961
          ],
          [
            106.6406071,
            10.7651237
          ],
          [
            106.6405374,
            10.7651554
          ],
          [
            106.6404837,
            10.7651817
          ],
          [
            106.64041,
            10.7651659
          ],
          [
            106.6403433,
            10.7651366
          ],
          [
            106.6403171,
            10.765126
          ],
          [
            106.6401002,
            10.7651448
          ],
          [
            106.6399392,
            10.765158
          ],
          [
            106.6398188,
            10.7651619
          ],
          [
            106.6397354,
            10.7651646
          ],
          [
            106.6396584,
            10.7651716
          ]
        ]
      }
    },
    {
      "type": "Feature",
      "id": "way/611103509",
      "properties": {
        "osm_id": 611103509,
        "highway": "path",
        "name": null,
        "surface": null,
        "wheelchair": "unknown",
        "source": "OpenStreetMap",
        "field_verified": false,
        "navigation_use": "research_reference_only"
      },
      "geometry": {
        "type": "LineString",
        "coordinates": [
          [
            106.6357234,
            10.7616875
          ],
          [
            106.635637,
            10.7613728
          ],
          [
            106.635519,
            10.7608062
          ],
          [
            106.6353875,
            10.7602819
          ],
          [
            106.6353446,
            10.7600315
          ]
        ]
      }
    },
    {
      "type": "Feature",
      "id": "way/611103511",
      "properties": {
        "osm_id": 611103511,
        "highway": "path",
        "name": null,
        "surface": null,
        "wheelchair": "unknown",
        "source": "OpenStreetMap",
        "field_verified": false,
        "navigation_use": "research_reference_only"
      },
      "geometry": {
        "type": "LineString",
        "coordinates": [
          [
            106.6353446,
            10.7600315
          ],
          [
            106.6352776,
            10.7598629
          ]
        ]
      }
    },
    {
      "type": "Feature",
      "id": "way/611103513",
      "properties": {
        "osm_id": 611103513,
        "highway": "path",
        "name": null,
        "surface": null,
        "wheelchair": "unknown",
        "source": "OpenStreetMap",
        "field_verified": false,
        "navigation_use": "research_reference_only"
      },
      "geometry": {
        "type": "LineString",
        "coordinates": [
          [
            106.6370302,
            10.7616609
          ],
          [
            106.6370907,
            10.7613701
          ],
          [
            106.6371042,
            10.7611462
          ],
          [
            106.6370586,
            10.7609037
          ],
          [
            106.6369539,
            10.7604716
          ],
          [
            106.6368252,
            10.7600895
          ],
          [
            106.6366857,
            10.7599867
          ],
          [
            106.6365516,
            10.7599683
          ]
        ]
      }
    },
    {
      "type": "Feature",
      "id": "way/611103518",
      "properties": {
        "osm_id": 611103518,
        "highway": "path",
        "name": null,
        "surface": null,
        "wheelchair": "unknown",
        "source": "OpenStreetMap",
        "field_verified": false,
        "navigation_use": "research_reference_only"
      },
      "geometry": {
        "type": "LineString",
        "coordinates": [
          [
            106.6358139,
            10.7621764
          ],
          [
            106.6357785,
            10.762013
          ],
          [
            106.635718,
            10.7618826
          ],
          [
            106.6357138,
            10.7617825
          ],
          [
            106.6357234,
            10.7616875
          ]
        ]
      }
    },
    {
      "type": "Feature",
      "id": "way/611103520",
      "properties": {
        "osm_id": 611103520,
        "highway": "path",
        "name": null,
        "surface": null,
        "wheelchair": "unknown",
        "source": "OpenStreetMap",
        "field_verified": false,
        "navigation_use": "research_reference_only"
      },
      "geometry": {
        "type": "LineString",
        "coordinates": [
          [
            106.6358139,
            10.7621764
          ],
          [
            106.6358596,
            10.7623398
          ],
          [
            106.6359347,
            10.7627193
          ],
          [
            106.6359428,
            10.7628379
          ],
          [
            106.6359454,
            10.7628932
          ],
          [
            106.6360447,
            10.7629143
          ],
          [
            106.6362539,
            10.7629512
          ],
          [
            106.6363934,
            10.7629459
          ],
          [
            106.6365074,
            10.7629393
          ]
        ]
      }
    },
    {
      "type": "Feature",
      "id": "way/611103523",
      "properties": {
        "osm_id": 611103523,
        "highway": "path",
        "name": null,
        "surface": null,
        "wheelchair": "unknown",
        "source": "OpenStreetMap",
        "field_verified": false,
        "navigation_use": "research_reference_only"
      },
      "geometry": {
        "type": "LineString",
        "coordinates": [
          [
            106.6353446,
            10.7600315
          ],
          [
            106.6354653,
            10.7599604
          ],
          [
            106.6357684,
            10.7599209
          ],
          [
            106.6361037,
            10.7600026
          ],
          [
            106.6362244,
            10.759913
          ],
          [
            106.6364148,
            10.7599051
          ],
          [
            106.6365516,
            10.7599683
          ]
        ]
      }
    },
    {
      "type": "Feature",
      "id": "way/1039247205",
      "properties": {
        "osm_id": 1039247205,
        "highway": "footway",
        "name": null,
        "surface": null,
        "wheelchair": "unknown",
        "source": "OpenStreetMap",
        "field_verified": false,
        "navigation_use": "research_reference_only"
      },
      "geometry": {
        "type": "LineString",
        "coordinates": [
          [
            106.6362959,
            10.766922
          ],
          [
            106.6370181,
            10.7671326
          ],
          [
            106.6370644,
            10.7671454
          ]
        ]
      }
    },
    {
      "type": "Feature",
      "id": "way/1125343764",
      "properties": {
        "osm_id": 1125343764,
        "highway": "path",
        "name": null,
        "surface": null,
        "wheelchair": "unknown",
        "source": "OpenStreetMap",
        "field_verified": false,
        "navigation_use": "research_reference_only"
      },
      "geometry": {
        "type": "LineString",
        "coordinates": [
          [
            106.6392671,
            10.7652985
          ],
          [
            106.6393278,
            10.7653124
          ],
          [
            106.6393748,
            10.7653206
          ]
        ]
      }
    },
    {
      "type": "Feature",
      "id": "way/1125343765",
      "properties": {
        "osm_id": 1125343765,
        "highway": "path",
        "name": null,
        "surface": null,
        "wheelchair": "unknown",
        "source": "OpenStreetMap",
        "field_verified": false,
        "navigation_use": "research_reference_only"
      },
      "geometry": {
        "type": "LineString",
        "coordinates": [
          [
            106.6379354,
            10.7645091
          ],
          [
            106.6380045,
            10.7644982
          ],
          [
            106.6380976,
            10.7644958
          ]
        ]
      }
    },
    {
      "type": "Feature",
      "id": "way/1125343766",
      "properties": {
        "osm_id": 1125343766,
        "highway": "path",
        "name": null,
        "surface": null,
        "wheelchair": "unknown",
        "source": "OpenStreetMap",
        "field_verified": false,
        "navigation_use": "research_reference_only"
      },
      "geometry": {
        "type": "LineString",
        "coordinates": [
          [
            106.6389579,
            10.7658915
          ],
          [
            106.6388496,
            10.7658894
          ]
        ]
      }
    },
    {
      "type": "Feature",
      "id": "way/1125343767",
      "properties": {
        "osm_id": 1125343767,
        "highway": "path",
        "name": null,
        "surface": null,
        "wheelchair": "unknown",
        "source": "OpenStreetMap",
        "field_verified": false,
        "navigation_use": "research_reference_only"
      },
      "geometry": {
        "type": "LineString",
        "coordinates": [
          [
            106.6391192,
            10.7658947
          ],
          [
            106.6389579,
            10.7658915
          ]
        ]
      }
    },
    {
      "type": "Feature",
      "id": "way/1161242772",
      "properties": {
        "osm_id": 1161242772,
        "highway": "path",
        "name": null,
        "surface": null,
        "wheelchair": "unknown",
        "source": "OpenStreetMap",
        "field_verified": false,
        "navigation_use": "research_reference_only"
      },
      "geometry": {
        "type": "LineString",
        "coordinates": [
          [
            106.6390414,
            10.7650523
          ],
          [
            106.6389884,
            10.765098
          ]
        ]
      }
    },
    {
      "type": "Feature",
      "id": "way/1161242773",
      "properties": {
        "osm_id": 1161242773,
        "highway": "path",
        "name": null,
        "surface": null,
        "wheelchair": "unknown",
        "source": "OpenStreetMap",
        "field_verified": false,
        "navigation_use": "research_reference_only"
      },
      "geometry": {
        "type": "LineString",
        "coordinates": [
          [
            106.6389013,
            10.7649535
          ],
          [
            106.638854,
            10.7649982
          ]
        ]
      }
    },
    {
      "type": "Feature",
      "id": "way/1219698111",
      "properties": {
        "osm_id": 1219698111,
        "highway": "footway",
        "name": null,
        "surface": null,
        "wheelchair": "unknown",
        "source": "OpenStreetMap",
        "field_verified": false,
        "navigation_use": "research_reference_only"
      },
      "geometry": {
        "type": "LineString",
        "coordinates": [
          [
            106.6365342,
            10.7668842
          ],
          [
            106.6365469,
            10.7668278
          ],
          [
            106.6365662,
            10.7667424
          ],
          [
            106.6365769,
            10.766695
          ],
          [
            106.6366865,
            10.7667189
          ],
          [
            106.6369022,
            10.7667658
          ],
          [
            106.6370095,
            10.7667892
          ],
          [
            106.6369979,
            10.7668407
          ],
          [
            106.636979,
            10.7669243
          ],
          [
            106.6369668,
            10.7669784
          ],
          [
            106.6368559,
            10.7669543
          ],
          [
            106.6366443,
            10.7669082
          ],
          [
            106.6365342,
            10.7668842
          ]
        ]
      }
    },
    {
      "type": "Feature",
      "id": "way/1219698112",
      "properties": {
        "osm_id": 1219698112,
        "highway": "footway",
        "name": null,
        "surface": null,
        "wheelchair": "unknown",
        "source": "OpenStreetMap",
        "field_verified": false,
        "navigation_use": "research_reference_only"
      },
      "geometry": {
        "type": "LineString",
        "coordinates": [
          [
            106.6365469,
            10.7668278
          ],
          [
            106.6366644,
            10.7668102
          ],
          [
            106.6367847,
            10.7667922
          ],
          [
            106.6369001,
            10.7667749
          ],
          [
            106.6369022,
            10.7667658
          ]
        ]
      }
    },
    {
      "type": "Feature",
      "id": "way/1219698113",
      "properties": {
        "osm_id": 1219698113,
        "highway": "footway",
        "name": null,
        "surface": null,
        "wheelchair": "unknown",
        "source": "OpenStreetMap",
        "field_verified": false,
        "navigation_use": "research_reference_only"
      },
      "geometry": {
        "type": "LineString",
        "coordinates": [
          [
            106.6365469,
            10.7668278
          ],
          [
            106.6366461,
            10.7668992
          ],
          [
            106.6366443,
            10.7669082
          ]
        ]
      }
    },
    {
      "type": "Feature",
      "id": "way/1219698114",
      "properties": {
        "osm_id": 1219698114,
        "highway": "footway",
        "name": null,
        "surface": null,
        "wheelchair": "unknown",
        "source": "OpenStreetMap",
        "field_verified": false,
        "navigation_use": "research_reference_only"
      },
      "geometry": {
        "type": "LineString",
        "coordinates": [
          [
            106.6366461,
            10.7668992
          ],
          [
            106.6367647,
            10.7668795
          ],
          [
            106.636884,
            10.7668597
          ],
          [
            106.6369979,
            10.7668407
          ],
          [
            106.6369001,
            10.7667749
          ]
        ]
      }
    },
    {
      "type": "Feature",
      "id": "way/1219698115",
      "properties": {
        "osm_id": 1219698115,
        "highway": "footway",
        "name": null,
        "surface": null,
        "wheelchair": "unknown",
        "source": "OpenStreetMap",
        "field_verified": false,
        "navigation_use": "research_reference_only"
      },
      "geometry": {
        "type": "LineString",
        "coordinates": [
          [
            106.6368559,
            10.7669543
          ],
          [
            106.636858,
            10.766944
          ],
          [
            106.6367647,
            10.7668795
          ],
          [
            106.6366644,
            10.7668102
          ],
          [
            106.6365662,
            10.7667424
          ],
          [
            106.636685,
            10.7667244
          ],
          [
            106.6366865,
            10.7667189
          ]
        ]
      }
    },
    {
      "type": "Feature",
      "id": "way/1219698116",
      "properties": {
        "osm_id": 1219698116,
        "highway": "footway",
        "name": null,
        "surface": null,
        "wheelchair": "unknown",
        "source": "OpenStreetMap",
        "field_verified": false,
        "navigation_use": "research_reference_only"
      },
      "geometry": {
        "type": "LineString",
        "coordinates": [
          [
            106.636858,
            10.766944
          ],
          [
            106.636979,
            10.7669243
          ],
          [
            106.636884,
            10.7668597
          ],
          [
            106.6367847,
            10.7667922
          ],
          [
            106.636685,
            10.7667244
          ]
        ]
      }
    },
    {
      "type": "Feature",
      "id": "way/1219698117",
      "properties": {
        "osm_id": 1219698117,
        "highway": "footway",
        "name": null,
        "surface": null,
        "wheelchair": "unknown",
        "source": "OpenStreetMap",
        "field_verified": false,
        "navigation_use": "research_reference_only"
      },
      "geometry": {
        "type": "LineString",
        "coordinates": [
          [
            106.6369205,
            10.7666644
          ],
          [
            106.6370415,
            10.7666446
          ],
          [
            106.6369465,
            10.76658
          ],
          [
            106.6368472,
            10.7665126
          ],
          [
            106.6367475,
            10.7664448
          ]
        ]
      }
    },
    {
      "type": "Feature",
      "id": "way/1219698118",
      "properties": {
        "osm_id": 1219698118,
        "highway": "footway",
        "name": null,
        "surface": null,
        "wheelchair": "unknown",
        "source": "OpenStreetMap",
        "field_verified": false,
        "navigation_use": "research_reference_only"
      },
      "geometry": {
        "type": "LineString",
        "coordinates": [
          [
            106.6366094,
            10.7665482
          ],
          [
            106.6367269,
            10.7665306
          ],
          [
            106.6368472,
            10.7665126
          ],
          [
            106.6369625,
            10.7664953
          ],
          [
            106.6369647,
            10.7664862
          ]
        ]
      }
    },
    {
      "type": "Feature",
      "id": "way/1219698119",
      "properties": {
        "osm_id": 1219698119,
        "highway": "footway",
        "name": null,
        "surface": null,
        "wheelchair": "unknown",
        "source": "OpenStreetMap",
        "field_verified": false,
        "navigation_use": "research_reference_only"
      },
      "geometry": {
        "type": "LineString",
        "coordinates": [
          [
            106.6367086,
            10.7666196
          ],
          [
            106.6368271,
            10.7665999
          ],
          [
            106.6369465,
            10.76658
          ],
          [
            106.6370604,
            10.7665611
          ],
          [
            106.6369625,
            10.7664953
          ]
        ]
      }
    },
    {
      "type": "Feature",
      "id": "way/1219698120",
      "properties": {
        "osm_id": 1219698120,
        "highway": "footway",
        "name": null,
        "surface": null,
        "wheelchair": "unknown",
        "source": "OpenStreetMap",
        "field_verified": false,
        "navigation_use": "research_reference_only"
      },
      "geometry": {
        "type": "LineString",
        "coordinates": [
          [
            106.6365967,
            10.7666045
          ],
          [
            106.6366094,
            10.7665482
          ],
          [
            106.6366287,
            10.7664627
          ],
          [
            106.6366394,
            10.7664154
          ],
          [
            106.636749,
            10.7664392
          ],
          [
            106.6369647,
            10.7664862
          ],
          [
            106.637072,
            10.7665096
          ],
          [
            106.6370604,
            10.7665611
          ],
          [
            106.6370415,
            10.7666446
          ],
          [
            106.6370293,
            10.7666988
          ],
          [
            106.6369184,
            10.7666746
          ],
          [
            106.6367068,
            10.7666285
          ],
          [
            106.6365967,
            10.7666045
          ]
        ]
      }
    },
    {
      "type": "Feature",
      "id": "way/1219698121",
      "properties": {
        "osm_id": 1219698121,
        "highway": "footway",
        "name": null,
        "surface": null,
        "wheelchair": "unknown",
        "source": "OpenStreetMap",
        "field_verified": false,
        "navigation_use": "research_reference_only"
      },
      "geometry": {
        "type": "LineString",
        "coordinates": [
          [
            106.6369184,
            10.7666746
          ],
          [
            106.6369205,
            10.7666644
          ],
          [
            106.6368271,
            10.7665999
          ],
          [
            106.6367269,
            10.7665306
          ],
          [
            106.6366287,
            10.7664627
          ],
          [
            106.6367475,
            10.7664448
          ],
          [
            106.636749,
            10.7664392
          ]
        ]
      }
    },
    {
      "type": "Feature",
      "id": "way/1219698122",
      "properties": {
        "osm_id": 1219698122,
        "highway": "footway",
        "name": null,
        "surface": null,
        "wheelchair": "unknown",
        "source": "OpenStreetMap",
        "field_verified": false,
        "navigation_use": "research_reference_only"
      },
      "geometry": {
        "type": "LineString",
        "coordinates": [
          [
            106.6366094,
            10.7665482
          ],
          [
            106.6367086,
            10.7666196
          ],
          [
            106.6367068,
            10.7666285
          ]
        ]
      }
    },
    {
      "type": "Feature",
      "id": "way/1219698123",
      "properties": {
        "osm_id": 1219698123,
        "highway": "footway",
        "name": null,
        "surface": null,
        "wheelchair": "unknown",
        "source": "OpenStreetMap",
        "field_verified": false,
        "navigation_use": "research_reference_only"
      },
      "geometry": {
        "type": "LineString",
        "coordinates": [
          [
            106.6370095,
            10.7667892
          ],
          [
            106.6370391,
            10.7667713
          ],
          [
            106.637041,
            10.7667633
          ],
          [
            106.637047,
            10.7667372
          ],
          [
            106.6370493,
            10.7667277
          ],
          [
            106.6370293,
            10.7666988
          ]
        ]
      }
    },
    {
      "type": "Feature",
      "id": "way/1219698124",
      "properties": {
        "osm_id": 1219698124,
        "highway": "footway",
        "name": null,
        "surface": null,
        "wheelchair": "unknown",
        "source": "OpenStreetMap",
        "field_verified": false,
        "navigation_use": "research_reference_only"
      },
      "geometry": {
        "type": "LineString",
        "coordinates": [
          [
            106.637041,
            10.7667633
          ],
          [
            106.6373828,
            10.766819
          ]
        ]
      }
    },
    {
      "type": "Feature",
      "id": "way/1219698125",
      "properties": {
        "osm_id": 1219698125,
        "highway": "footway",
        "name": null,
        "surface": null,
        "wheelchair": "unknown",
        "source": "OpenStreetMap",
        "field_verified": false,
        "navigation_use": "research_reference_only"
      },
      "geometry": {
        "type": "LineString",
        "coordinates": [
          [
            106.637047,
            10.7667372
          ],
          [
            106.6373923,
            10.7667937
          ]
        ]
      }
    },
    {
      "type": "Feature",
      "id": "way/1219698128",
      "properties": {
        "osm_id": 1219698128,
        "highway": "path",
        "name": null,
        "surface": null,
        "wheelchair": "unknown",
        "source": "OpenStreetMap",
        "field_verified": false,
        "navigation_use": "research_reference_only"
      },
      "geometry": {
        "type": "LineString",
        "coordinates": [
          [
            106.6380092,
            10.7622669
          ],
          [
            106.6379022,
            10.7621583
          ],
          [
            106.6377433,
            10.7620532
          ],
          [
            106.6375603,
            10.7619717
          ]
        ]
      }
    },
    {
      "type": "Feature",
      "id": "way/1219698129",
      "properties": {
        "osm_id": 1219698129,
        "highway": "path",
        "name": null,
        "surface": null,
        "wheelchair": "unknown",
        "source": "OpenStreetMap",
        "field_verified": false,
        "navigation_use": "research_reference_only"
      },
      "geometry": {
        "type": "LineString",
        "coordinates": [
          [
            106.6380852,
            10.7624229
          ],
          [
            106.6380092,
            10.7622669
          ]
        ]
      }
    }
  ]
}
