{"type": "FeatureCollection", "name": "damsen-walkways", "note": "Footpaths redrawn on the official map (gate at the bottom), georeferenced via the illustrated picture. Estimate (~3-8 m), not surveyed.", "features": [{"type": "Feature", "properties": {"id": "nw-e1", "path": "main-north", "lengthM": 14.68}, "geometry": {"type": "LineString", "coordinates": [[106.6385045, 10.7630428], [106.6384618, 10.7630708], [106.638423, 10.7631003], [106.6383975, 10.7631226]]}}, {"type": "Feature", "properties": {"id": "nw-e2", "path": "main-north", "lengthM": 19.23}, "geometry": {"type": "LineString", "coordinates": [[106.638107, 10.7635984], [106.6380938, 10.7636282], [106.6380738, 10.7636736], [106.6380549, 10.7637166], [106.638037, 10.7637579]]}}, {"type": "Feature", "properties": {"id": "nw-e3", "path": "main-north", "lengthM": 19.01}, "geometry": {"type": "LineString", "coordinates": [[106.638037, 10.7637579], [106.6380198, 10.7637981], [106.6380032, 10.7638375], [106.6379869, 10.7638769], [106.6379707, 10.7639169]]}}, {"type": "Feature", "properties": {"id": "nw-e4", "path": "main-north", "lengthM": 9.93}, "geometry": {"type": "LineString", "coordinates": [[106.6379707, 10.7639169], [106.6379543, 10.7639579], [106.6379377, 10.7640006]]}}, {"type": "Feature", "properties": {"id": "nw-e5", "path": "main-north", "lengthM": 20.52}, "geometry": {"type": "LineString", "coordinates": [[106.6379377, 10.7640006], [106.6379108, 10.7640623], [106.6378851, 10.7641185], [106.6378607, 10.7641698]]}}, {"type": "Feature", "properties": {"id": "nw-e6", "path": "main-north", "lengthM": 16.25}, "geometry": {"type": "LineString", "coordinates": [[106.6378607, 10.7641698], [106.6378374, 10.7642169], [106.6378155, 10.7642606], [106.6377948, 10.7643016]]}}, {"type": "Feature", "properties": {"id": "nw-e7", "path": "main-north", "lengthM": 22.63}, "geometry": {"type": "LineString", "coordinates": [[106.6377948, 10.7643016], [106.6377756, 10.7643404], [106.6377577, 10.764378], [106.6377413, 10.7644148], [106.6377263, 10.7644517], [106.6377129, 10.7644893]]}}, {"type": "Feature", "properties": {"id": "nw-e8", "path": "main-north", "lengthM": 15.53}, "geometry": {"type": "LineString", "coordinates": [[106.6377129, 10.7644893], [106.637701, 10.7645283], [106.6376746, 10.7645712], [106.6376492, 10.7646139]]}}, {"type": "Feature", "properties": {"id": "nw-e9", "path": "main-north", "lengthM": 19.7}, "geometry": {"type": "LineString", "coordinates": [[106.6376492, 10.7646139], [106.6376247, 10.7646564], [106.637601, 10.7646989], [106.6375781, 10.7647416], [106.6375632, 10.7647703]]}}, {"type": "Feature", "properties": {"id": "nw-e10", "path": "main-north", "lengthM": 20.16}, "geometry": {"type": "LineString", "coordinates": [[106.6370105, 10.7667787], [106.636985, 10.766837], [106.6369627, 10.7668937], [106.6369436, 10.7669486]]}}, {"type": "Feature", "properties": {"id": "nw-e11", "path": "main-north", "lengthM": 17.37}, "geometry": {"type": "LineString", "coordinates": [[106.6369436, 10.7669486], [106.636928, 10.7670015], [106.6369158, 10.7670525], [106.6369072, 10.7671012]]}}, {"type": "Feature", "properties": {"id": "nw-e12", "path": "main-north", "lengthM": 11.3}, "geometry": {"type": "LineString", "coordinates": [[106.6369072, 10.7671012], [106.6369023, 10.7671476], [106.6369011, 10.7671916], [106.6369019, 10.7672031]]}}, {"type": "Feature", "properties": {"id": "nw-e13", "path": "main-south", "lengthM": 4.51}, "geometry": {"type": "LineString", "coordinates": [[106.6395439, 10.765965], [106.6395504, 10.7659247]]}}, {"type": "Feature", "properties": {"id": "nw-e14", "path": "main-south", "lengthM": 15.92}, "geometry": {"type": "LineString", "coordinates": [[106.6395504, 10.7659247], [106.6395581, 10.7658768], [106.6395703, 10.7657821]]}}, {"type": "Feature", "properties": {"id": "nw-e15", "path": "main-south", "lengthM": 22.55}, "geometry": {"type": "LineString", "coordinates": [[106.6395703, 10.7657821], [106.6395807, 10.7656823], [106.6395892, 10.765579]]}}, {"type": "Feature", "properties": {"id": "nw-e16", "path": "main-south", "lengthM": 23.4}, "geometry": {"type": "LineString", "coordinates": [[106.6395892, 10.765579], [106.6395961, 10.7654737], [106.6396014, 10.7653677]]}}, {"type": "Feature", "properties": {"id": "nw-e17", "path": "main-south", "lengthM": 22.96}, "geometry": {"type": "LineString", "coordinates": [[106.6396014, 10.7653677], [106.6396053, 10.7652628], [106.6396079, 10.7651602]]}}, {"type": "Feature", "properties": {"id": "nw-e18", "path": "main-south", "lengthM": 21.22}, "geometry": {"type": "LineString", "coordinates": [[106.6396079, 10.7651602], [106.6396092, 10.7650615], [106.6396094, 10.7649683]]}}, {"type": "Feature", "properties": {"id": "nw-e19", "path": "main-south", "lengthM": 18.17}, "geometry": {"type": "LineString", "coordinates": [[106.6396094, 10.7649683], [106.6396087, 10.7648819], [106.639607, 10.764804]]}}, {"type": "Feature", "properties": {"id": "nw-e20", "path": "main-south", "lengthM": 7.82}, "geometry": {"type": "LineString", "coordinates": [[106.639607, 10.764804], [106.6396056, 10.7647333]]}}, {"type": "Feature", "properties": {"id": "nw-e21", "path": "main-south", "lengthM": 21.71}, "geometry": {"type": "LineString", "coordinates": [[106.6396056, 10.7647333], [106.6396029, 10.7646624], [106.639599, 10.7645915], [106.6395951, 10.7645373]]}}, {"type": "Feature", "properties": {"id": "nw-e22", "path": "main-south", "lengthM": 5.41}, "geometry": {"type": "LineString", "coordinates": [[106.6395547, 10.7641853], [106.6395469, 10.764137]]}}, {"type": "Feature", "properties": {"id": "nw-e23", "path": "khu-b-connector", "lengthM": 18.19}, "geometry": {"type": "LineString", "coordinates": [[106.6385045, 10.7630428], [106.6384628, 10.7630041], [106.6384232, 10.7629658], [106.6383856, 10.7629278]]}}, {"type": "Feature", "properties": {"id": "nw-e24", "path": "khu-b-connector", "lengthM": 16.92}, "geometry": {"type": "LineString", "coordinates": [[106.6383856, 10.7629278], [106.6383501, 10.7628896], [106.6383165, 10.762851], [106.6382849, 10.7628117]]}}, {"type": "Feature", "properties": {"id": "nw-e25", "path": "khu-b-connector", "lengthM": 8.45}, "geometry": {"type": "LineString", "coordinates": [[106.6382849, 10.7628117], [106.6382552, 10.7627714], [106.6382404, 10.7627493]]}}, {"type": "Feature", "properties": {"id": "nw-e26", "path": "khu-b-connector", "lengthM": 34.86}, "geometry": {"type": "LineString", "coordinates": [[106.6376248, 10.7616965], [106.6376132, 10.7616891], [106.6375828, 10.7616716], [106.6373333, 10.7615702]]}}, {"type": "Feature", "properties": {"id": "nw-e27", "path": "khu-b-loop", "lengthM": 17.27}, "geometry": {"type": "LineString", "coordinates": [[106.6372862, 10.7615511], [106.6372622, 10.761541], [106.6372405, 10.7615298], [106.6372211, 10.7615175], [106.6372039, 10.7615041], [106.6371889, 10.7614894], [106.637176, 10.7614734], [106.6371651, 10.7614561]]}}, {"type": "Feature", "properties": {"id": "nw-e28", "path": "khu-b-loop", "lengthM": 65.16}, "geometry": {"type": "LineString", "coordinates": [[106.6371651, 10.7614561], [106.6371562, 10.7614374], [106.6371493, 10.7614173], [106.6371442, 10.7613956], [106.6371409, 10.7613723], [106.6371394, 10.7613473], [106.6371424, 10.7608708]]}}, {"type": "Feature", "properties": {"id": "nw-e29", "path": "khu-b-loop", "lengthM": 7.64}, "geometry": {"type": "LineString", "coordinates": [[106.6371424, 10.7608708], [106.6371418, 10.7608017]]}}, {"type": "Feature", "properties": {"id": "nw-e30", "path": "khu-b-loop", "lengthM": 43.36}, "geometry": {"type": "LineString", "coordinates": [[106.6355573, 10.7614105], [106.6359531, 10.761434]]}}, {"type": "Feature", "properties": {"id": "nw-e31", "path": "khu-b-loop", "lengthM": 66.28}, "geometry": {"type": "LineString", "coordinates": [[106.6359531, 10.761434], [106.636558, 10.7614699]]}}, {"type": "Feature", "properties": {"id": "nw-e32", "path": "khu-b-central", "lengthM": 61.04}, "geometry": {"type": "LineString", "coordinates": [[106.636343, 10.761468], [106.636332, 10.7620199]]}}, {"type": "Feature", "properties": {"id": "nw-e33", "path": "khu-b-central", "lengthM": 19.06}, "geometry": {"type": "LineString", "coordinates": [[106.636332, 10.7620199], [106.6363814, 10.7620372], [106.6364365, 10.7620561], [106.6364966, 10.7620765]]}}, {"type": "Feature", "properties": {"id": "nw-e34", "path": "khu-b-central", "lengthM": 23.31}, "geometry": {"type": "LineString", "coordinates": [[106.6364966, 10.7620765], [106.6365608, 10.7620981], [106.6366284, 10.7621207], [106.6366985, 10.762144]]}}, {"type": "Feature", "properties": {"id": "nw-e35", "path": "khu-b-central", "lengthM": 16.68}, "geometry": {"type": "LineString", "coordinates": [[106.6366985, 10.762144], [106.6367704, 10.7621677], [106.6368433, 10.7621915]]}}, {"type": "Feature", "properties": {"id": "nw-e36", "path": "khu-b-central", "lengthM": 16.74}, "geometry": {"type": "LineString", "coordinates": [[106.6368433, 10.7621915], [106.6369163, 10.7622154], [106.6369887, 10.7622389]]}}, {"type": "Feature", "properties": {"id": "nw-e37", "path": "khu-b-central", "lengthM": 16.06}, "geometry": {"type": "LineString", "coordinates": [[106.6369887, 10.7622389], [106.6370596, 10.7622618], [106.6371283, 10.7622839]]}}, {"type": "Feature", "properties": {"id": "nw-e38", "path": "khu-b-central", "lengthM": 25.81}, "geometry": {"type": "LineString", "coordinates": [[106.6371283, 10.7622839], [106.6373465, 10.7623727]]}}, {"type": "Feature", "properties": {"id": "nw-e39", "path": "zoo-access", "lengthM": 43.36}, "geometry": {"type": "LineString", "coordinates": [[106.6355573, 10.7614105], [106.6359531, 10.761434]]}}, {"type": "Feature", "properties": {"id": "nw-e40", "path": "zoo-access", "lengthM": 43.94}, "geometry": {"type": "LineString", "coordinates": [[106.6359531, 10.761434], [106.6363432, 10.7614572], [106.636343, 10.761468]]}}, {"type": "Feature", "properties": {"id": "nw-e41", "path": "zoo-access", "lengthM": 61.04}, "geometry": {"type": "LineString", "coordinates": [[106.636343, 10.761468], [106.636332, 10.7620199]]}}, {"type": "Feature", "properties": {"id": "nw-e42", "path": "gate-2-access", "lengthM": 14.89}, "geometry": {"type": "LineString", "coordinates": [[106.63736, 10.7679644], [106.637353, 10.7680989]]}}, {"type": "Feature", "properties": {"id": "nw-e43", "path": "children-east", "lengthM": 16.44}, "geometry": {"type": "LineString", "coordinates": [[106.6375995, 10.7682875], [106.6376637, 10.7682899], [106.6377266, 10.7682897], [106.6377497, 10.7682887]]}}, {"type": "Feature", "properties": {"id": "nw-e44", "path": "children-south", "lengthM": 8.81}, "geometry": {"type": "LineString", "coordinates": [[106.6395639, 10.7671851], [106.6395474, 10.7671072]]}}, {"type": "Feature", "properties": {"id": "nw-e45", "path": "gate-1-west-avenue", "lengthM": 8.6}, "geometry": {"type": "LineString", "coordinates": [[106.641709, 10.7657252], [106.6416305, 10.7657199]]}}, {"type": "Feature", "properties": {"id": "nw-e46", "path": "gate-1-east-avenue", "lengthM": 68.75}, "geometry": {"type": "LineString", "coordinates": [[106.6417031, 10.7659198], [106.6410756, 10.7658826]]}}, {"type": "Feature", "properties": {"id": "nw-e47", "path": "gate-1-east-avenue", "lengthM": 51.0}, "geometry": {"type": "LineString", "coordinates": [[106.6410756, 10.7658826], [106.6409738, 10.7658765], [106.6406102, 10.7658521]]}}, {"type": "Feature", "properties": {"id": "nw-e48", "path": "gate-1-top", "lengthM": 13.92}, "geometry": {"type": "LineString", "coordinates": [[106.6395946, 10.7655942], [106.6395179, 10.7655084], [106.6395065, 10.7655075]]}}, {"type": "Feature", "properties": {"id": "nw-e49", "path": "gate-1-top", "lengthM": 28.5}, "geometry": {"type": "LineString", "coordinates": [[106.6395065, 10.7655075], [106.6392467, 10.7654869]]}}, {"type": "Feature", "properties": {"id": "nw-e50", "path": "gate-1-top", "lengthM": 16.7}, "geometry": {"type": "LineString", "coordinates": [[106.6392467, 10.7654869], [106.639113, 10.7654139]]}}, {"type": "Feature", "properties": {"id": "nw-e51", "path": "gate-1-top", "lengthM": 21.08}, "geometry": {"type": "LineString", "coordinates": [[106.639113, 10.7654139], [106.6389203, 10.7654187]]}}, {"type": "Feature", "properties": {"id": "nw-e52", "path": "main-entrance-crossing", "lengthM": 16.75}, "geometry": {"type": "LineString", "coordinates": [[106.6395065, 10.7655075], [106.6395224, 10.7656582]]}}, {"type": "Feature", "properties": {"id": "nw-e53", "path": "gate-1A-access", "lengthM": 23.43}, "geometry": {"type": "LineString", "coordinates": [[106.6410756, 10.7658826], [106.6410768, 10.7659142], [106.6410793, 10.7659497], [106.641083, 10.7659839], [106.6410877, 10.7660173], [106.6410929, 10.7660503], [106.6410986, 10.766083], [106.6411003, 10.7660929]]}}, {"type": "Feature", "properties": {"id": "nw-e54", "path": "garden-west", "lengthM": 56.0}, "geometry": {"type": "LineString", "coordinates": [[106.6395547, 10.7641853], [106.6400611, 10.7642607]]}}, {"type": "Feature", "properties": {"id": "nw-e55", "path": "nam-tu-loop", "lengthM": 44.49}, "geometry": {"type": "LineString", "coordinates": [[106.6396056, 10.7647333], [106.6396167, 10.7651355]]}}, {"type": "Feature", "properties": {"id": "nw-e56", "path": "nam-tu-loop", "lengthM": 17.09}, "geometry": {"type": "LineString", "coordinates": [[106.6402913, 10.7652637], [106.6402952, 10.765237], [106.6403011, 10.7652114], [106.6403092, 10.765187], [106.6403245, 10.7651516], [106.6403374, 10.7651167]]}}, {"type": "Feature", "properties": {"id": "nw-e57", "path": "nam-tu-loop", "lengthM": 15.5}, "geometry": {"type": "LineString", "coordinates": [[106.6403374, 10.7651167], [106.6403478, 10.7650822], [106.6403559, 10.7650479], [106.6403618, 10.7650138], [106.6403657, 10.7649797]]}}, {"type": "Feature", "properties": {"id": "nw-e58", "path": "nam-tu-loop", "lengthM": 15.19}, "geometry": {"type": "LineString", "coordinates": [[106.6403657, 10.7649797], [106.6403675, 10.7649457], [106.6403674, 10.7649115], [106.6403655, 10.7648772], [106.6403619, 10.7648426]]}}, {"type": "Feature", "properties": {"id": "nw-e59", "path": "nam-tu-loop", "lengthM": 7.89}, "geometry": {"type": "LineString", "coordinates": [[106.6403619, 10.7648426], [106.6403566, 10.7648076], [106.6403499, 10.7647722]]}}, {"type": "Feature", "properties": {"id": "nw-e60", "path": "nam-tu-loop", "lengthM": 61.78}, "geometry": {"type": "LineString", "coordinates": [[106.6403499, 10.7647722], [106.6397858, 10.7647427]]}}, {"type": "Feature", "properties": {"id": "nw-e61", "path": "south-pond-loop", "lengthM": 17.96}, "geometry": {"type": "LineString", "coordinates": [[106.6403499, 10.7647722], [106.6403848, 10.7647704], [106.6404186, 10.7647687], [106.6404513, 10.7647673], [106.6404831, 10.7647663], [106.640514, 10.7647657]]}}, {"type": "Feature", "properties": {"id": "nw-e62", "path": "south-pond-loop", "lengthM": 17.41}, "geometry": {"type": "LineString", "coordinates": [[106.640514, 10.7647657], [106.6405441, 10.7647655], [106.6405735, 10.7647658], [106.6406022, 10.7647668], [106.6406304, 10.7647683], [106.6406581, 10.7647706], [106.6406729, 10.7647723]]}}, {"type": "Feature", "properties": {"id": "nw-e63", "path": "south-pond-loop", "lengthM": 17.87}, "geometry": {"type": "LineString", "coordinates": [[106.6406729, 10.7647723], [106.6406853, 10.7647736], [106.6407123, 10.7647775], [106.640745, 10.7647823], [106.6407756, 10.7647898], [106.6408038, 10.7648], [106.6408297, 10.764813]]}}, {"type": "Feature", "properties": {"id": "nw-e64", "path": "south-pond-loop", "lengthM": 15.58}, "geometry": {"type": "LineString", "coordinates": [[106.6408297, 10.764813], [106.6408533, 10.7648285], [106.6408744, 10.7648467], [106.6408932, 10.7648675], [106.6409094, 10.7648907], [106.6409231, 10.7649165]]}}, {"type": "Feature", "properties": {"id": "nw-e65", "path": "south-pond-loop", "lengthM": 15.88}, "geometry": {"type": "LineString", "coordinates": [[106.6409231, 10.7649165], [106.6409343, 10.7649447], [106.6409429, 10.7649753], [106.6409489, 10.7650083], [106.6409564, 10.7650557]]}}, {"type": "Feature", "properties": {"id": "nw-e66", "path": "south-pond-loop", "lengthM": 15.12}, "geometry": {"type": "LineString", "coordinates": [[106.6409564, 10.7650557], [106.6409618, 10.7651023], [106.640965, 10.7651478], [106.6409658, 10.7651921]]}}, {"type": "Feature", "properties": {"id": "nw-e67", "path": "south-pond-loop", "lengthM": 18.2}, "geometry": {"type": "LineString", "coordinates": [[106.6409658, 10.7651921], [106.6409639, 10.765235], [106.6409592, 10.7652764], [106.6409515, 10.7653161], [106.6409406, 10.7653541]]}}, {"type": "Feature", "properties": {"id": "nw-e68", "path": "south-pond-loop", "lengthM": 17.05}, "geometry": {"type": "LineString", "coordinates": [[106.6409406, 10.7653541], [106.6409263, 10.7653901], [106.6409083, 10.7654241], [106.6408866, 10.7654558], [106.6408609, 10.7654852]]}}, {"type": "Feature", "properties": {"id": "nw-e69", "path": "south-pond-loop", "lengthM": 16.69}, "geometry": {"type": "LineString", "coordinates": [[106.6408609, 10.7654852], [106.640837, 10.7655066], [106.6408118, 10.7655247], [106.6407856, 10.7655397], [106.6407585, 10.7655515], [106.6407306, 10.7655602]]}}, {"type": "Feature", "properties": {"id": "nw-e70", "path": "south-pond-loop", "lengthM": 16.17}, "geometry": {"type": "LineString", "coordinates": [[106.6407306, 10.7655602], [106.6407021, 10.7655658], [106.640673, 10.7655683], [106.6406437, 10.7655678], [106.640614, 10.7655642], [106.6405844, 10.7655577]]}}, {"type": "Feature", "properties": {"id": "nw-e71", "path": "south-pond-loop", "lengthM": 16.98}, "geometry": {"type": "LineString", "coordinates": [[106.6405844, 10.7655577], [106.6405547, 10.7655482], [106.6405253, 10.7655357], [106.6404981, 10.7655209], [106.6404725, 10.7655043], [106.6404484, 10.7654859]]}}, {"type": "Feature", "properties": {"id": "nw-e72", "path": "south-pond-loop", "lengthM": 16.33}, "geometry": {"type": "LineString", "coordinates": [[106.6404484, 10.7654859], [106.640426, 10.765466], [106.6404053, 10.7654446], [106.6403864, 10.7654218], [106.6403692, 10.7653978], [106.6403539, 10.7653726]]}}, {"type": "Feature", "properties": {"id": "nw-e73", "path": "south-pond-loop", "lengthM": 14.11}, "geometry": {"type": "LineString", "coordinates": [[106.6403539, 10.7653726], [106.6403406, 10.7653465], [106.6403292, 10.7653194], [106.6403198, 10.7652915], [106.6402913, 10.7652637]]}}, {"type": "Feature", "properties": {"id": "nw-e74", "path": "stage-access", "lengthM": 18.0}, "geometry": {"type": "LineString", "coordinates": [[106.6389203, 10.7654187], [106.6387558, 10.7654252]]}}, {"type": "Feature", "properties": {"id": "nw-e75", "path": "cuu-khuc-bridge", "lengthM": 16.0}, "geometry": {"type": "LineString", "coordinates": [[106.639245, 10.7649775], [106.6391046, 10.7649367]]}}, {"type": "Feature", "properties": {"id": "nw-e76", "path": "cuu-khuc-bridge", "lengthM": 20.94}, "geometry": {"type": "LineString", "coordinates": [[106.6391046, 10.7649367], [106.6391103, 10.7647474]]}}, {"type": "Feature", "properties": {"id": "nw-e77", "path": "cuu-khuc-bridge", "lengthM": 19.64}, "geometry": {"type": "LineString", "coordinates": [[106.6391103, 10.7647474], [106.6389662, 10.7646413]]}}, {"type": "Feature", "properties": {"id": "nw-e78", "path": "cuu-khuc-bridge", "lengthM": 15.3}, "geometry": {"type": "LineString", "coordinates": [[106.6389662, 10.7646413], [106.6390042, 10.7645081]]}}, {"type": "Feature", "properties": {"id": "nw-e79", "path": "cuu-khuc-bridge", "lengthM": 21.43}, "geometry": {"type": "LineString", "coordinates": [[106.6390042, 10.7645081], [106.6388668, 10.76437]]}}, {"type": "Feature", "properties": {"id": "nw-e80", "path": "cuu-khuc-bridge", "lengthM": 17.02}, "geometry": {"type": "LineString", "coordinates": [[106.6388668, 10.76437], [106.6388167, 10.7645157]]}}, {"type": "Feature", "properties": {"id": "nw-e81", "path": "cuu-khuc-bridge", "lengthM": 21.72}, "geometry": {"type": "LineString", "coordinates": [[106.638629, 10.7645563], [106.6384741, 10.7644333]]}}, {"type": "Feature", "properties": {"id": "nw-e82", "path": "cuu-khuc-bridge", "lengthM": 24.98}, "geometry": {"type": "LineString", "coordinates": [[106.6384741, 10.7644333], [106.6382912, 10.7642979]]}}, {"type": "Feature", "properties": {"id": "nw-e83", "path": "cuu-khuc-upper-pier", "lengthM": 21.54}, "geometry": {"type": "LineString", "coordinates": [[106.638629, 10.7645563], [106.6386231, 10.764751]]}}, {"type": "Feature", "properties": {"id": "nw-e84", "path": "cuu-khuc-lower-pier", "lengthM": 24.1}, "geometry": {"type": "LineString", "coordinates": [[106.6389662, 10.7646413], [106.6389258, 10.7648556]]}}, {"type": "Feature", "properties": {"id": "nw-e85", "path": "lake-pavilion-link", "lengthM": 24.64}, "geometry": {"type": "LineString", "coordinates": [[106.6379377, 10.7640006], [106.638124, 10.7641259]]}}, {"type": "Feature", "properties": {"id": "nw-e86", "path": "cuu-khuc-pavilion-access", "lengthM": 16.98}, "geometry": {"type": "LineString", "coordinates": [[106.6382912, 10.7642979], [106.638304, 10.7642783], [106.6383155, 10.7642586], [106.6383258, 10.7642389], [106.6383347, 10.764219], [106.6383424, 10.7641989], [106.6383486, 10.7641787], [106.6383535, 10.7641583]]}}, {"type": "Feature", "properties": {"id": "nw-e87", "path": "cuu-khuc-pavilion-access", "lengthM": 11.76}, "geometry": {"type": "LineString", "coordinates": [[106.6383535, 10.7641583], [106.6383569, 10.7641376], [106.6383588, 10.7641167], [106.6383592, 10.7640956], [106.638358, 10.7640742], [106.6383552, 10.7640525]]}}, {"type": "Feature", "properties": {"id": "nw-e88", "path": "khu-b-lake-access", "lengthM": 8.97}, "geometry": {"type": "LineString", "coordinates": [[106.6359555, 10.7613529], [106.6359531, 10.761434]]}}, {"type": "Feature", "properties": {"id": "nw-e89", "path": "rides-west-access", "lengthM": 22.3}, "geometry": {"type": "LineString", "coordinates": [[106.6377129, 10.7644893], [106.6375139, 10.7645334]]}}, {"type": "Feature", "properties": {"id": "nw-e90", "path": "circus-access", "lengthM": 33.82}, "geometry": {"type": "LineString", "coordinates": [[106.6369887, 10.7622389], [106.637006, 10.7625443]]}}, {"type": "Feature", "properties": {"id": "nw-e91", "path": "poi-access-19-20", "lengthM": 18.18}, "geometry": {"type": "LineString", "coordinates": [[106.6370105, 10.7667787], [106.6369372, 10.7667408], [106.6368629, 10.7667031]]}}, {"type": "Feature", "properties": {"id": "nw-e92", "path": "poi-access-19-20", "lengthM": 25.22}, "geometry": {"type": "LineString", "coordinates": [[106.6368629, 10.7667031], [106.6367876, 10.7666658], [106.6367116, 10.7666291], [106.6366557, 10.7666029]]}}, {"type": "Feature", "properties": {"id": "nw-e93", "path": "poi-access-22-25", "lengthM": 40.65}, "geometry": {"type": "LineString", "coordinates": [[106.6372614, 10.7654891], [106.6369052, 10.765384]]}}, {"type": "Feature", "properties": {"id": "nw-e94", "path": "poi-access-26-27", "lengthM": 49.88}, "geometry": {"type": "LineString", "coordinates": [[106.638107, 10.7635984], [106.6376894, 10.7634171]]}}, {"type": "Feature", "properties": {"id": "nw-e95", "path": "poi-access-41", "lengthM": 1.51}, "geometry": {"type": "LineString", "coordinates": [[106.6387558, 10.7654252], [106.6387431, 10.7654304]]}}, {"type": "Feature", "properties": {"id": "nw-e96", "path": "poi-access-42", "lengthM": 66.32}, "geometry": {"type": "LineString", "coordinates": [[106.6373313, 10.7660883], [106.6379359, 10.766135]]}}, {"type": "Feature", "properties": {"id": "nw-e97", "path": "poi-access-49", "lengthM": 19.43}, "geometry": {"type": "LineString", "coordinates": [[106.636332, 10.7620199], [106.636264, 10.7620748], [106.636194, 10.7621306]]}}, {"type": "Feature", "properties": {"id": "nw-e98", "path": "poi-access-49", "lengthM": 17.51}, "geometry": {"type": "LineString", "coordinates": [[106.636194, 10.7621306], [106.6361226, 10.7621874], [106.6360692, 10.7622298]]}}, {"type": "Feature", "properties": {"id": "nw-e99", "path": "split", "lengthM": 16.73}, "geometry": {"type": "LineString", "coordinates": [[106.63736, 10.7679644], [106.6373946, 10.7679619], [106.6374303, 10.7679534], [106.6374669, 10.7679391], [106.6375042, 10.7679196]]}}, {"type": "Feature", "properties": {"id": "nw-e100", "path": "split", "lengthM": 15.63}, "geometry": {"type": "LineString", "coordinates": [[106.6375042, 10.7679196], [106.6375418, 10.7678953], [106.6375795, 10.7678664], [106.6376172, 10.7678335]]}}, {"type": "Feature", "properties": {"id": "nw-e101", "path": "split", "lengthM": 17.84}, "geometry": {"type": "LineString", "coordinates": [[106.6376172, 10.7678335], [106.6376545, 10.7677969], [106.6376911, 10.7677571], [106.637727, 10.7677143]]}}, {"type": "Feature", "properties": {"id": "nw-e102", "path": "split", "lengthM": 24.24}, "geometry": {"type": "LineString", "coordinates": [[106.637727, 10.7677143], [106.6377617, 10.7676691], [106.637795, 10.7676219], [106.6378239, 10.7675757], [106.6378513, 10.767533]]}}, {"type": "Feature", "properties": {"id": "nw-e103", "path": "split", "lengthM": 16.48}, "geometry": {"type": "LineString", "coordinates": [[106.6393228, 10.7667688], [106.6393438, 10.7667459], [106.6393699, 10.7667137], [106.6393956, 10.7666786], [106.6394141, 10.7666505]]}}, {"type": "Feature", "properties": {"id": "nw-e104", "path": "connector", "lengthM": 26.89}, "geometry": {"type": "LineString", "coordinates": [[106.6393228, 10.7667688], [106.6395093, 10.7669273]]}}, {"type": "Feature", "properties": {"id": "nw-e105", "path": "split", "lengthM": 15.49}, "geometry": {"type": "LineString", "coordinates": [[106.6372614, 10.7654891], [106.6372495, 10.7655358], [106.6372388, 10.7655844], [106.6372282, 10.7656253]]}}, {"type": "Feature", "properties": {"id": "nw-e106", "path": "split", "lengthM": 15.38}, "geometry": {"type": "LineString", "coordinates": [[106.6372282, 10.7656253], [106.637221, 10.7656682], [106.6372169, 10.7657126], [106.6372153, 10.7657583], [106.6372154, 10.7657637]]}}, {"type": "Feature", "properties": {"id": "nw-e107", "path": "split", "lengthM": 15.63}, "geometry": {"type": "LineString", "coordinates": [[106.6372376, 10.7660899], [106.6372395, 10.7661261], [106.6372449, 10.7661796], [106.6372447, 10.7662309]]}}, {"type": "Feature", "properties": {"id": "nw-e108", "path": "split", "lengthM": 16.04}, "geometry": {"type": "LineString", "coordinates": [[106.6372447, 10.7662309], [106.6372397, 10.7662801], [106.6372304, 10.7663275], [106.6372173, 10.7663731]]}}, {"type": "Feature", "properties": {"id": "nw-e109", "path": "split", "lengthM": 15.43}, "geometry": {"type": "LineString", "coordinates": [[106.6372173, 10.7663731], [106.6372011, 10.7664171], [106.6371823, 10.7664597], [106.6371616, 10.7665012]]}}, {"type": "Feature", "properties": {"id": "nw-e110", "path": "split", "lengthM": 15.08}, "geometry": {"type": "LineString", "coordinates": [[106.6371616, 10.7665012], [106.6371395, 10.7665415], [106.6371166, 10.766581], [106.6370934, 10.7666197]]}}, {"type": "Feature", "properties": {"id": "nw-e111", "path": "split", "lengthM": 19.79}, "geometry": {"type": "LineString", "coordinates": [[106.6370934, 10.7666197], [106.6370707, 10.7666579], [106.6370391, 10.766719], [106.6370105, 10.7667787]]}}, {"type": "Feature", "properties": {"id": "nw-e112", "path": "connector", "lengthM": 10.25}, "geometry": {"type": "LineString", "coordinates": [[106.6372376, 10.7660899], [106.6373313, 10.7660883]]}}, {"type": "Feature", "properties": {"id": "nw-e113", "path": "gate-1-west-avenue", "lengthM": 71.33}, "geometry": {"type": "LineString", "coordinates": [[106.6416305, 10.7657199], [106.6409798, 10.7656764]]}}, {"type": "Feature", "properties": {"id": "nw-e114", "path": "gate-1-west-avenue", "lengthM": 151.75}, "geometry": {"type": "LineString", "coordinates": [[106.6409798, 10.7656764], [106.6395946, 10.7655942]]}}, {"type": "Feature", "properties": {"id": "nw-e115", "path": "gate-1-east-avenue", "lengthM": 59.68}, "geometry": {"type": "LineString", "coordinates": [[106.6404511, 10.7658414], [106.6399066, 10.7658047]]}}, {"type": "Feature", "properties": {"id": "nw-e116", "path": "gate-1-east-avenue", "lengthM": 36.86}, "geometry": {"type": "LineString", "coordinates": [[106.6399066, 10.7658047], [106.6395703, 10.7657821]]}}, {"type": "Feature", "properties": {"id": "nw-e117", "path": "split", "lengthM": 16.17}, "geometry": {"type": "LineString", "coordinates": [[106.6395372, 10.7661426], [106.6395382, 10.7661248], [106.6395404, 10.7660714], [106.6395422, 10.766018], [106.6395429, 10.7659965]]}}, {"type": "Feature", "properties": {"id": "nw-e118", "path": "split", "lengthM": 3.49}, "geometry": {"type": "LineString", "coordinates": [[106.6395429, 10.7659965], [106.6395439, 10.765965]]}}, {"type": "Feature", "properties": {"id": "nw-e119", "path": "split", "lengthM": 16.7}, "geometry": {"type": "LineString", "coordinates": [[106.6394141, 10.7666505], [106.6394207, 10.7666406], [106.6394453, 10.7665999], [106.6394695, 10.7665565], [106.6394837, 10.7665167]]}}, {"type": "Feature", "properties": {"id": "nw-e120", "path": "split", "lengthM": 15.3}, "geometry": {"type": "LineString", "coordinates": [[106.6394837, 10.7665167], [106.6394958, 10.7664741], [106.6395061, 10.766429], [106.6395146, 10.7663818]]}}, {"type": "Feature", "properties": {"id": "nw-e121", "path": "split", "lengthM": 16.83}, "geometry": {"type": "LineString", "coordinates": [[106.6395146, 10.7663818], [106.6395216, 10.7663328], [106.6395273, 10.7662823], [106.6395318, 10.7662306]]}}, {"type": "Feature", "properties": {"id": "nw-e122", "path": "split", "lengthM": 9.74}, "geometry": {"type": "LineString", "coordinates": [[106.6395318, 10.7662306], [106.6395354, 10.766178], [106.6395372, 10.7661426]]}}, {"type": "Feature", "properties": {"id": "nw-e123", "path": "children-south", "lengthM": 20.32}, "geometry": {"type": "LineString", "coordinates": [[106.6395474, 10.7671072], [106.6395093, 10.7669273]]}}, {"type": "Feature", "properties": {"id": "nw-e124", "path": "children-east", "lengthM": 17.2}, "geometry": {"type": "LineString", "coordinates": [[106.6391536, 10.7676549], [106.639163, 10.7676466], [106.6392159, 10.7675971], [106.6392667, 10.7675469]]}}, {"type": "Feature", "properties": {"id": "nw-e125", "path": "children-east", "lengthM": 15.34}, "geometry": {"type": "LineString", "coordinates": [[106.6392667, 10.7675469], [106.6393153, 10.7674961], [106.6393618, 10.7674449]]}}, {"type": "Feature", "properties": {"id": "nw-e126", "path": "children-east", "lengthM": 22.12}, "geometry": {"type": "LineString", "coordinates": [[106.6393618, 10.7674449], [106.6394062, 10.7673933], [106.6394486, 10.7673414], [106.639489, 10.7672894]]}}, {"type": "Feature", "properties": {"id": "nw-e127", "path": "children-east", "lengthM": 14.14}, "geometry": {"type": "LineString", "coordinates": [[106.639489, 10.7672894], [106.6395274, 10.7672372], [106.6395639, 10.7671851]]}}, {"type": "Feature", "properties": {"id": "nw-e128", "path": "split", "lengthM": 15.93}, "geometry": {"type": "LineString", "coordinates": [[106.6384349, 10.7670024], [106.6384524, 10.7669959], [106.6384932, 10.7669833], [106.6385342, 10.7669729], [106.6385753, 10.7669646]]}}, {"type": "Feature", "properties": {"id": "nw-e129", "path": "split", "lengthM": 17.63}, "geometry": {"type": "LineString", "coordinates": [[106.6385753, 10.7669646], [106.6386164, 10.7669581], [106.6386576, 10.7669532], [106.6386987, 10.7669496], [106.6387354, 10.7669474]]}}, {"type": "Feature", "properties": {"id": "nw-e130", "path": "split", "lengthM": 15.9}, "geometry": {"type": "LineString", "coordinates": [[106.6387354, 10.7669474], [106.6387717, 10.7669444], [106.6388079, 10.7669408], [106.6388439, 10.7669365], [106.6388799, 10.7669316]]}}, {"type": "Feature", "properties": {"id": "nw-e131", "path": "split", "lengthM": 16.31}, "geometry": {"type": "LineString", "coordinates": [[106.6388799, 10.7669316], [106.6389161, 10.7669259], [106.6389525, 10.7669196], [106.6389893, 10.7669127], [106.6390266, 10.7669051]]}}, {"type": "Feature", "properties": {"id": "nw-e132", "path": "split", "lengthM": 16.53}, "geometry": {"type": "LineString", "coordinates": [[106.6390266, 10.7669051], [106.6390645, 10.7668968], [106.6391032, 10.7668879], [106.6391426, 10.7668784], [106.6391736, 10.7668702]]}}, {"type": "Feature", "properties": {"id": "nw-e133", "path": "split", "lengthM": 20.0}, "geometry": {"type": "LineString", "coordinates": [[106.6391736, 10.7668702], [106.6392037, 10.7668583], [106.6392331, 10.7668426], [106.6392618, 10.7668235], [106.6392897, 10.7668009], [106.6393171, 10.766775], [106.6393228, 10.7667688]]}}, {"type": "Feature", "properties": {"id": "nw-e134", "path": "children-east", "lengthM": 18.05}, "geometry": {"type": "LineString", "coordinates": [[106.6380561, 10.768244], [106.6380826, 10.7682375], [106.6381399, 10.7682213], [106.638197, 10.7682032], [106.6382141, 10.7681972]]}}, {"type": "Feature", "properties": {"id": "nw-e135", "path": "split", "lengthM": 19.24}, "geometry": {"type": "LineString", "coordinates": [[106.6380106, 10.7673148], [106.6380207, 10.7673027], [106.6380571, 10.7672622], [106.6380945, 10.7672244], [106.6381327, 10.7671898]]}}, {"type": "Feature", "properties": {"id": "nw-e136", "path": "split", "lengthM": 16.27}, "geometry": {"type": "LineString", "coordinates": [[106.6381327, 10.7671898], [106.6381719, 10.7671588], [106.6382118, 10.767132], [106.6382512, 10.767101]]}}, {"type": "Feature", "properties": {"id": "nw-e137", "path": "split", "lengthM": 22.94}, "geometry": {"type": "LineString", "coordinates": [[106.6382512, 10.767101], [106.638291, 10.7670736], [106.638331, 10.7670496], [106.6383712, 10.7670289], [106.6384117, 10.767011], [106.6384349, 10.7670024]]}}, {"type": "Feature", "properties": {"id": "nw-e138", "path": "split", "lengthM": 19.22}, "geometry": {"type": "LineString", "coordinates": [[106.6378513, 10.767533], [106.6378539, 10.7675289], [106.6378851, 10.767482], [106.6379175, 10.7674355], [106.6379508, 10.7673898]]}}, {"type": "Feature", "properties": {"id": "nw-e139", "path": "split", "lengthM": 10.56}, "geometry": {"type": "LineString", "coordinates": [[106.6379508, 10.7673898], [106.6379853, 10.7673454], [106.6380106, 10.7673148]]}}, {"type": "Feature", "properties": {"id": "nw-e140", "path": "children-east", "lengthM": 17.42}, "geometry": {"type": "LineString", "coordinates": [[106.6377497, 10.7682887], [106.6377882, 10.7682869], [106.6378486, 10.7682816], [106.6379082, 10.7682739]]}}, {"type": "Feature", "properties": {"id": "nw-e141", "path": "children-east", "lengthM": 16.52}, "geometry": {"type": "LineString", "coordinates": [[106.6379082, 10.7682739], [106.6379669, 10.7682639], [106.638025, 10.7682517], [106.6380561, 10.768244]]}}, {"type": "Feature", "properties": {"id": "nw-e142", "path": "gate-2-access", "lengthM": 18.07}, "geometry": {"type": "LineString", "coordinates": [[106.637353, 10.7680989], [106.6373446, 10.7682622]]}}, {"type": "Feature", "properties": {"id": "nw-e143", "path": "main-north", "lengthM": 18.36}, "geometry": {"type": "LineString", "coordinates": [[106.6369727, 10.7677591], [106.6369727, 10.7677591], [106.6370025, 10.7677969], [106.6370374, 10.7678211], [106.63707, 10.7678434], [106.6371009, 10.7678637]]}}, {"type": "Feature", "properties": {"id": "nw-e144", "path": "main-north", "lengthM": 17.45}, "geometry": {"type": "LineString", "coordinates": [[106.6371009, 10.7678637], [106.6371304, 10.7678822], [106.6371589, 10.7678988], [106.6371866, 10.7679135], [106.6372141, 10.7679264], [106.6372416, 10.7679375]]}}, {"type": "Feature", "properties": {"id": "nw-e145", "path": "main-north", "lengthM": 13.31}, "geometry": {"type": "LineString", "coordinates": [[106.6372416, 10.7679375], [106.6372696, 10.7679469], [106.6372984, 10.7679545], [106.6373284, 10.7679603], [106.63736, 10.7679644]]}}, {"type": "Feature", "properties": {"id": "nw-e146", "path": "poi-access-19-20", "lengthM": 36.09}, "geometry": {"type": "LineString", "coordinates": [[106.6361047, 10.7663784], [106.6357844, 10.7662998]]}}, {"type": "Feature", "properties": {"id": "nw-e147", "path": "poi-access-22-25", "lengthM": 22.36}, "geometry": {"type": "LineString", "coordinates": [[106.6369052, 10.765384], [106.6367093, 10.7653263]]}}, {"type": "Feature", "properties": {"id": "nw-e148", "path": "poi-access-22-25", "lengthM": 31.94}, "geometry": {"type": "LineString", "coordinates": [[106.6365911, 10.7652914], [106.6365906, 10.7652912], [106.6363008, 10.7653228]]}}, {"type": "Feature", "properties": {"id": "nw-e149", "path": "poi-access-22-25", "lengthM": 56.95}, "geometry": {"type": "LineString", "coordinates": [[106.6363008, 10.7653228], [106.6363008, 10.7653228], [106.6361574, 10.7648277]]}}, {"type": "Feature", "properties": {"id": "nw-e150", "path": "poi-access-22-25", "lengthM": 92.69}, "geometry": {"type": "LineString", "coordinates": [[106.6361574, 10.7648277], [106.6361571, 10.7648267], [106.6368944, 10.7644154]]}}, {"type": "Feature", "properties": {"id": "nw-e151", "path": "poi-access-22-25", "lengthM": 68.99}, "geometry": {"type": "LineString", "coordinates": [[106.6368944, 10.7644154], [106.6368944, 10.7644154], [106.6375139, 10.7645334]]}}, {"type": "Feature", "properties": {"id": "nw-e152", "path": "poi-access-26-27", "lengthM": 41.4}, "geometry": {"type": "LineString", "coordinates": [[106.6376894, 10.7634171], [106.637689, 10.763417], [106.6375979, 10.763054]]}}, {"type": "Feature", "properties": {"id": "nw-e153", "path": "khu-b-central", "lengthM": 15.24}, "geometry": {"type": "LineString", "coordinates": [[106.6373465, 10.7623727], [106.6373465, 10.7623727], [106.6373672, 10.7623317], [106.6373873, 10.7622903], [106.6374069, 10.7622485]]}}, {"type": "Feature", "properties": {"id": "nw-e154", "path": "khu-b-central", "lengthM": 15.38}, "geometry": {"type": "LineString", "coordinates": [[106.6374069, 10.7622485], [106.637426, 10.7622063], [106.6374447, 10.7621638], [106.6374631, 10.762121]]}}, {"type": "Feature", "properties": {"id": "nw-e155", "path": "khu-b-central", "lengthM": 15.51}, "geometry": {"type": "LineString", "coordinates": [[106.6374631, 10.762121], [106.6374813, 10.7620779], [106.6374993, 10.7620347], [106.6375173, 10.7619913]]}}, {"type": "Feature", "properties": {"id": "nw-e156", "path": "khu-b-central", "lengthM": 15.62}, "geometry": {"type": "LineString", "coordinates": [[106.6375173, 10.7619913], [106.6375352, 10.7619478], [106.6375533, 10.7619042], [106.6375715, 10.7618606]]}}, {"type": "Feature", "properties": {"id": "nw-e157", "path": "khu-b-central", "lengthM": 19.05}, "geometry": {"type": "LineString", "coordinates": [[106.6375715, 10.7618606], [106.6376248, 10.7616965]]}}, {"type": "Feature", "properties": {"id": "nw-e158", "path": "main-north", "lengthM": 12.54}, "geometry": {"type": "LineString", "coordinates": [[106.6382947, 10.7632385], [106.6382731, 10.7632698], [106.6382494, 10.7633078], [106.638234, 10.7633347]]}}, {"type": "Feature", "properties": {"id": "nw-e159", "path": "main-north", "lengthM": 14.91}, "geometry": {"type": "LineString", "coordinates": [[106.6382244, 10.7633518], [106.6382053, 10.7633876], [106.6381841, 10.7634293], [106.6381631, 10.7634722]]}}, {"type": "Feature", "properties": {"id": "nw-e160", "path": "main-north", "lengthM": 15.24}, "geometry": {"type": "LineString", "coordinates": [[106.6381631, 10.7634722], [106.6381383, 10.7635281], [106.6381152, 10.7635798], [106.638107, 10.7635984]]}}, {"type": "Feature", "properties": {"id": "nw-e161", "path": "main-north", "lengthM": 17.09}, "geometry": {"type": "LineString", "coordinates": [[106.6383975, 10.7631226], [106.6383876, 10.7631313], [106.6383553, 10.7631638], [106.6383257, 10.7631977], [106.6382984, 10.7632331], [106.6382947, 10.7632385]]}}, {"type": "Feature", "properties": {"id": "nw-e162", "path": "khu-b-connector", "lengthM": 19.58}, "geometry": {"type": "LineString", "coordinates": [[106.6382404, 10.7627493], [106.6382273, 10.7627298], [106.6382014, 10.7626866], [106.6381772, 10.7626414], [106.6381549, 10.762594]]}}, {"type": "Feature", "properties": {"id": "nw-e163", "path": "khu-b-connector", "lengthM": 17.66}, "geometry": {"type": "LineString", "coordinates": [[106.6381549, 10.762594], [106.6381343, 10.7625441], [106.6381141, 10.7624966], [106.6380931, 10.7624465]]}}, {"type": "Feature", "properties": {"id": "nw-e164", "path": "khu-b-connector", "lengthM": 19.0}, "geometry": {"type": "LineString", "coordinates": [[106.6380931, 10.7624465], [106.6380716, 10.7623944], [106.6380498, 10.762341], [106.6380277, 10.7622873]]}}, {"type": "Feature", "properties": {"id": "nw-e165", "path": "khu-b-connector", "lengthM": 18.77}, "geometry": {"type": "LineString", "coordinates": [[106.6380277, 10.7622873], [106.6380056, 10.7622337], [106.6379835, 10.7621813], [106.6379617, 10.7621305]]}}, {"type": "Feature", "properties": {"id": "nw-e166", "path": "khu-b-connector", "lengthM": 16.33}, "geometry": {"type": "LineString", "coordinates": [[106.6379617, 10.7621305], [106.6379403, 10.7620823], [106.6379194, 10.7620374], [106.6378993, 10.7619964]]}}, {"type": "Feature", "properties": {"id": "nw-e167", "path": "khu-b-connector", "lengthM": 15.81}, "geometry": {"type": "LineString", "coordinates": [[106.6378993, 10.7619964], [106.63788, 10.7619602], [106.6378629, 10.761931], [106.6378441, 10.7619026], [106.6378236, 10.7618749]]}}, {"type": "Feature", "properties": {"id": "nw-e168", "path": "khu-b-connector", "lengthM": 15.46}, "geometry": {"type": "LineString", "coordinates": [[106.6378236, 10.7618749], [106.6378015, 10.7618479], [106.637778, 10.7618219], [106.6377532, 10.7617969], [106.6377271, 10.7617729]]}}, {"type": "Feature", "properties": {"id": "nw-e169", "path": "khu-b-connector", "lengthM": 14.04}, "geometry": {"type": "LineString", "coordinates": [[106.6377271, 10.7617729], [106.6377, 10.76175], [106.6376719, 10.7617284], [106.6376429, 10.7617081], [106.6376248, 10.7616965]]}}, {"type": "Feature", "properties": {"id": "nw-e170", "path": "main-south", "lengthM": 20.55}, "geometry": {"type": "LineString", "coordinates": [[106.6394854, 10.7638447], [106.6394819, 10.763831], [106.6394661, 10.7637745], [106.6394494, 10.7637196], [106.6394316, 10.7636667]]}}, {"type": "Feature", "properties": {"id": "nw-e171", "path": "main-south", "lengthM": 17.26}, "geometry": {"type": "LineString", "coordinates": [[106.6394316, 10.7636667], [106.6394128, 10.763616], [106.639393, 10.7635677], [106.6393722, 10.7635222]]}}, {"type": "Feature", "properties": {"id": "nw-e172", "path": "main-south", "lengthM": 20.89}, "geometry": {"type": "LineString", "coordinates": [[106.6393722, 10.7635222], [106.6393504, 10.7634796], [106.6393275, 10.7634403], [106.6393035, 10.7634045], [106.6392714, 10.7633623]]}}, {"type": "Feature", "properties": {"id": "nw-e173", "path": "main-south", "lengthM": 15.58}, "geometry": {"type": "LineString", "coordinates": [[106.6392714, 10.7633623], [106.63924, 10.7633234], [106.6392092, 10.7632878], [106.6391786, 10.7632554]]}}, {"type": "Feature", "properties": {"id": "nw-e174", "path": "main-south", "lengthM": 17.63}, "geometry": {"type": "LineString", "coordinates": [[106.6391786, 10.7632554], [106.639148, 10.7632261], [106.6391171, 10.7631997], [106.6390857, 10.7631763], [106.6390534, 10.7631557]]}}, {"type": "Feature", "properties": {"id": "nw-e175", "path": "main-south", "lengthM": 16.88}, "geometry": {"type": "LineString", "coordinates": [[106.6390534, 10.7631557], [106.63902, 10.7631378], [106.6389853, 10.7631225], [106.6389489, 10.7631097], [106.6389106, 10.7630994]]}}, {"type": "Feature", "properties": {"id": "nw-e176", "path": "main-south", "lengthM": 22.99}, "geometry": {"type": "LineString", "coordinates": [[106.6389106, 10.7630994], [106.6387017, 10.7630762]]}}, {"type": "Feature", "properties": {"id": "nw-e177", "path": "main-south", "lengthM": 21.97}, "geometry": {"type": "LineString", "coordinates": [[106.6387017, 10.7630762], [106.638681, 10.7630727], [106.6386613, 10.7630699], [106.6386423, 10.7630678], [106.6386242, 10.763066], [106.6386068, 10.7630644], [106.6385903, 10.7630628], [106.6385744, 10.763061], [106.6385592, 10.7630589], [106.6385446, 10.7630562], [106.6385307, 10.7630528], [106.6385173, 10.7630484], [106.6385045, 10.7630428]]}}, {"type": "Feature", "properties": {"id": "nw-e178", "path": "nam-tu-loop", "lengthM": 19.74}, "geometry": {"type": "LineString", "coordinates": [[106.6397858, 10.7647427], [106.6396056, 10.7647333]]}}, {"type": "Feature", "properties": {"id": "nw-e179", "path": "garden-west", "lengthM": 1.69}, "geometry": {"type": "LineString", "coordinates": [[106.6400611, 10.7642607], [106.6400764, 10.764263]]}}, {"type": "Feature", "properties": {"id": "nw-e180", "path": "garden-west", "lengthM": 31.78}, "geometry": {"type": "LineString", "coordinates": [[106.6405026, 10.7645394], [106.6406729, 10.7647723]]}}, {"type": "Feature", "properties": {"id": "nw-e181", "path": "nam-tu-loop", "lengthM": 38.36}, "geometry": {"type": "LineString", "coordinates": [[106.6396167, 10.7651355], [106.6396263, 10.7654823]]}}, {"type": "Feature", "properties": {"id": "nw-e182", "path": "nam-tu-loop", "lengthM": 62.05}, "geometry": {"type": "LineString", "coordinates": [[106.6396263, 10.7654823], [106.6401921, 10.7655247]]}}, {"type": "Feature", "properties": {"id": "nw-e183", "path": "main-entrance-crossing", "lengthM": 29.63}, "geometry": {"type": "LineString", "coordinates": [[106.6395224, 10.7656582], [106.6395504, 10.7659247]]}}, {"type": "Feature", "properties": {"id": "nw-e184", "path": "cuu-khuc-bridge", "lengthM": 15.76}, "geometry": {"type": "LineString", "coordinates": [[106.6388167, 10.7645157], [106.6388047, 10.7645505], [106.6387099, 10.7645015]]}}, {"type": "Feature", "properties": {"id": "nw-e185", "path": "cuu-khuc-bridge", "lengthM": 10.73}, "geometry": {"type": "LineString", "coordinates": [[106.6387099, 10.7645015], [106.638629, 10.7645563]]}}, {"type": "Feature", "properties": {"id": "nw-e186", "path": "khu-b-connector", "lengthM": 5.57}, "geometry": {"type": "LineString", "coordinates": [[106.6373333, 10.7615702], [106.6372862, 10.7615511]]}}, {"type": "Feature", "properties": {"id": "nw-e187", "path": "khu-b-loop", "lengthM": 39.64}, "geometry": {"type": "LineString", "coordinates": [[106.636558, 10.7614699], [106.6369199, 10.7614914]]}}, {"type": "Feature", "properties": {"id": "nw-e188", "path": "khu-b-loop", "lengthM": 15.97}, "geometry": {"type": "LineString", "coordinates": [[106.6369199, 10.7614914], [106.6369577, 10.761494], [106.6369946, 10.7614972], [106.6370305, 10.7615009], [106.6370653, 10.7615051]]}}, {"type": "Feature", "properties": {"id": "nw-e189", "path": "khu-b-loop", "lengthM": 16.9}, "geometry": {"type": "LineString", "coordinates": [[106.6370653, 10.7615051], [106.6370988, 10.7615097], [106.6371309, 10.7615148], [106.6371614, 10.7615202], [106.6371903, 10.7615259], [106.6372173, 10.7615319]]}}, {"type": "Feature", "properties": {"id": "nw-e190", "path": "khu-b-loop", "lengthM": 7.83}, "geometry": {"type": "LineString", "coordinates": [[106.6372173, 10.7615319], [106.6372424, 10.7615382], [106.6372654, 10.7615446], [106.6372862, 10.7615511]]}}, {"type": "Feature", "properties": {"id": "nw-e191", "path": "khu-b-loop", "lengthM": 15.73}, "geometry": {"type": "LineString", "coordinates": [[106.6369173, 10.760075], [106.6369062, 10.7600604], [106.6368652, 10.7600133], [106.6368215, 10.7599691]]}}, {"type": "Feature", "properties": {"id": "nw-e192", "path": "khu-b-loop", "lengthM": 20.39}, "geometry": {"type": "LineString", "coordinates": [[106.6368215, 10.7599691], [106.6367754, 10.7599276], [106.6367272, 10.7598888], [106.636677, 10.7598528]]}}, {"type": "Feature", "properties": {"id": "nw-e193", "path": "khu-b-loop", "lengthM": 20.15}, "geometry": {"type": "LineString", "coordinates": [[106.636677, 10.7598528], [106.6366253, 10.7598195], [106.6365721, 10.759789], [106.6365179, 10.7597612]]}}, {"type": "Feature", "properties": {"id": "nw-e194", "path": "khu-b-loop", "lengthM": 21.61}, "geometry": {"type": "LineString", "coordinates": [[106.6365179, 10.7597612], [106.6364627, 10.7597362], [106.636407, 10.7597138], [106.6363509, 10.7596942], [106.6363343, 10.7596892]]}}, {"type": "Feature", "properties": {"id": "nw-e195", "path": "khu-b-loop", "lengthM": 15.49}, "geometry": {"type": "LineString", "coordinates": [[106.6360164, 10.7596235], [106.6360046, 10.7596229], [106.63596, 10.7596233], [106.6359169, 10.7596268], [106.6358755, 10.7596334]]}}, {"type": "Feature", "properties": {"id": "nw-e196", "path": "khu-b-loop", "lengthM": 16.74}, "geometry": {"type": "LineString", "coordinates": [[106.6358755, 10.7596334], [106.6358358, 10.7596432], [106.635798, 10.7596563], [106.6357624, 10.7596728], [106.635735, 10.7596906]]}}, {"type": "Feature", "properties": {"id": "nw-e197", "path": "khu-b-loop", "lengthM": 12.24}, "geometry": {"type": "LineString", "coordinates": [[106.635735, 10.7596906], [106.6357102, 10.7597097], [106.6356881, 10.7597301], [106.6356686, 10.7597521], [106.6356566, 10.7597688]]}}, {"type": "Feature", "properties": {"id": "nw-e198", "path": "khu-b-loop", "lengthM": 18.64}, "geometry": {"type": "LineString", "coordinates": [[106.6356566, 10.7597688], [106.6356515, 10.7597759], [106.6356368, 10.7598015], [106.6356244, 10.7598292], [106.6356142, 10.759859], [106.6356061, 10.7598913], [106.6356001, 10.7599262]]}}, {"type": "Feature", "properties": {"id": "nw-e199", "path": "khu-b-loop", "lengthM": 164.21}, "geometry": {"type": "LineString", "coordinates": [[106.6356001, 10.7599262], [106.6355961, 10.7599637], [106.6355939, 10.7600041], [106.6355573, 10.7614105]]}}, {"type": "Feature", "properties": {"id": "nw-e200", "path": "poi-access-49", "lengthM": 22.99}, "geometry": {"type": "LineString", "coordinates": [[106.6360692, 10.7622298], [106.6360504, 10.7622448], [106.6359781, 10.7623027], [106.6359062, 10.762361]]}}, {"type": "Feature", "properties": {"id": "nw-e201", "path": "poi-access-49", "lengthM": 20.04}, "geometry": {"type": "LineString", "coordinates": [[106.6359062, 10.762361], [106.6358353, 10.7624195], [106.6357661, 10.7624779]]}}, {"type": "Feature", "properties": {"id": "nw-e202", "path": "poi-access-49", "lengthM": 19.24}, "geometry": {"type": "LineString", "coordinates": [[106.6357661, 10.7624779], [106.6356992, 10.7625362], [106.6356352, 10.7625942]]}}, {"type": "Feature", "properties": {"id": "nw-e203", "path": "poi-access-49", "lengthM": 17.97}, "geometry": {"type": "LineString", "coordinates": [[106.6356352, 10.7625942], [106.6355747, 10.7626516], [106.6355184, 10.7627084]]}}, {"type": "Feature", "properties": {"id": "nw-e204", "path": "split", "lengthM": 15.01}, "geometry": {"type": "LineString", "coordinates": [[106.6372154, 10.7657637], [106.6372159, 10.7658049], [106.637218, 10.765852], [106.6372214, 10.7658992]]}}, {"type": "Feature", "properties": {"id": "nw-e205", "path": "split", "lengthM": 21.15}, "geometry": {"type": "LineString", "coordinates": [[106.6372214, 10.7658992], [106.6372254, 10.7659463], [106.6372297, 10.7659929], [106.6372338, 10.7660387], [106.6372373, 10.7660832], [106.6372376, 10.7660899]]}}, {"type": "Feature", "properties": {"id": "nw-e206", "path": "poi-access-19-20", "lengthM": 20.93}, "geometry": {"type": "LineString", "coordinates": [[106.6366557, 10.7666029], [106.636635, 10.7665933], [106.6365583, 10.7665584], [106.6364814, 10.7665246]]}}, {"type": "Feature", "properties": {"id": "nw-e207", "path": "poi-access-19-20", "lengthM": 18.13}, "geometry": {"type": "LineString", "coordinates": [[106.6364814, 10.7665246], [106.6364048, 10.7664921], [106.6363286, 10.7664611]]}}, {"type": "Feature", "properties": {"id": "nw-e208", "path": "poi-access-19-20", "lengthM": 17.59}, "geometry": {"type": "LineString", "coordinates": [[106.6363286, 10.7664611], [106.6362531, 10.7664317], [106.6361784, 10.7664041]]}}, {"type": "Feature", "properties": {"id": "nw-e209", "path": "poi-access-19-20", "lengthM": 8.55}, "geometry": {"type": "LineString", "coordinates": [[106.6361784, 10.7664041], [106.6361049, 10.7663784], [106.6361047, 10.7663784]]}}, {"type": "Feature", "properties": {"id": "nw-e210", "path": "lake-pavilion-link", "lengthM": 27.29}, "geometry": {"type": "LineString", "coordinates": [[106.638124, 10.7641259], [106.638132, 10.7641313], [106.6382704, 10.764237], [106.6382912, 10.7642979]]}}, {"type": "Feature", "properties": {"id": "nw-e211", "path": "main-north", "lengthM": 7.62}, "geometry": {"type": "LineString", "coordinates": [[106.6369019, 10.7672031], [106.6369039, 10.7672329], [106.6369107, 10.7672714]]}}, {"type": "Feature", "properties": {"id": "nw-e212", "path": "circus-access", "lengthM": 1.57}, "geometry": {"type": "LineString", "coordinates": [[106.637006, 10.7625443], [106.6370068, 10.7625584]]}}, {"type": "Feature", "properties": {"id": "nw-e213", "path": "poi-access-22-25", "lengthM": 13.49}, "geometry": {"type": "LineString", "coordinates": [[106.6367093, 10.7653263], [106.6365911, 10.7652914]]}}, {"type": "Feature", "properties": {"id": "nw-e214", "path": "main-north", "lengthM": 18.67}, "geometry": {"type": "LineString", "coordinates": [[106.6369107, 10.7672714], [106.6369107, 10.7672714], [106.6368938, 10.7673065], [106.6368818, 10.7673458], [106.6368746, 10.7673886], [106.636872, 10.767434]]}}, {"type": "Feature", "properties": {"id": "nw-e215", "path": "main-north", "lengthM": 16.11}, "geometry": {"type": "LineString", "coordinates": [[106.636872, 10.767434], [106.6368739, 10.7674813], [106.6368803, 10.7675296], [106.6368908, 10.7675782]]}}, {"type": "Feature", "properties": {"id": "nw-e216", "path": "main-north", "lengthM": 22.02}, "geometry": {"type": "LineString", "coordinates": [[106.6368908, 10.7675782], [106.6369055, 10.7676262], [106.6369241, 10.7676729], [106.6369466, 10.7677175], [106.6369727, 10.7677591]]}}, {"type": "Feature", "properties": {"id": "nw-e217", "path": "children-east", "lengthM": 17.94}, "geometry": {"type": "LineString", "coordinates": [[106.6382141, 10.7681972], [106.638254, 10.7681833], [106.6383112, 10.7681618], [106.6383674, 10.7681396]]}}, {"type": "Feature", "properties": {"id": "nw-e218", "path": "children-east", "lengthM": 20.22}, "geometry": {"type": "LineString", "coordinates": [[106.6383674, 10.7681396], [106.6384242, 10.7681154], [106.6384815, 10.7680893], [106.6385353, 10.7680631]]}}, {"type": "Feature", "properties": {"id": "nw-e219", "path": "poi-access-41", "lengthM": 30.13}, "geometry": {"type": "LineString", "coordinates": [[106.6387431, 10.7654304], [106.6384883, 10.7655341]]}}, {"type": "Feature", "properties": {"id": "nw-e220", "path": "main-south", "lengthM": 21.27}, "geometry": {"type": "LineString", "coordinates": [[106.6395469, 10.764137], [106.6395447, 10.7641236], [106.6395342, 10.7640644], [106.6395233, 10.764008], [106.6395105, 10.7639481]]}}, {"type": "Feature", "properties": {"id": "nw-e221", "path": "main-south", "lengthM": 11.76}, "geometry": {"type": "LineString", "coordinates": [[106.6395105, 10.7639481], [106.6394967, 10.763889], [106.6394854, 10.7638447]]}}, {"type": "Feature", "properties": {"id": "nw-e222", "path": "khu-b-loop", "lengthM": 15.91}, "geometry": {"type": "LineString", "coordinates": [[106.6363343, 10.7596892], [106.6362947, 10.7596773], [106.6362444, 10.7596619], [106.6361947, 10.7596489]]}}, {"type": "Feature", "properties": {"id": "nw-e223", "path": "khu-b-loop", "lengthM": 19.74}, "geometry": {"type": "LineString", "coordinates": [[106.6361947, 10.7596489], [106.6361457, 10.7596384], [106.6360976, 10.7596305], [106.6360505, 10.7596253], [106.6360164, 10.7596235]]}}, {"type": "Feature", "properties": {"id": "nw-e224", "path": "khu-b-loop", "lengthM": 19.06}, "geometry": {"type": "LineString", "coordinates": [[106.6371418, 10.7608017], [106.6371417, 10.760788], [106.6371374, 10.7607076], [106.6371296, 10.7606298]]}}, {"type": "Feature", "properties": {"id": "nw-e225", "path": "khu-b-loop", "lengthM": 16.59}, "geometry": {"type": "LineString", "coordinates": [[106.6371296, 10.7606298], [106.6371183, 10.7605545], [106.6371036, 10.760482]]}}, {"type": "Feature", "properties": {"id": "nw-e226", "path": "khu-b-loop", "lengthM": 15.7}, "geometry": {"type": "LineString", "coordinates": [[106.6371036, 10.760482], [106.6370854, 10.7604123], [106.6370638, 10.7603456]]}}, {"type": "Feature", "properties": {"id": "nw-e227", "path": "khu-b-loop", "lengthM": 22.12}, "geometry": {"type": "LineString", "coordinates": [[106.6370638, 10.7603456], [106.6370388, 10.7602819], [106.6370106, 10.7602215], [106.636979, 10.7601643]]}}, {"type": "Feature", "properties": {"id": "nw-e228", "path": "khu-b-loop", "lengthM": 11.97}, "geometry": {"type": "LineString", "coordinates": [[106.636979, 10.7601643], [106.6369442, 10.7601106], [106.6369173, 10.760075]]}}, {"type": "Feature", "properties": {"id": "nw-e229", "path": "poi-access-41", "lengthM": 21.93}, "geometry": {"type": "LineString", "coordinates": [[106.6384883, 10.7655341], [106.6383028, 10.7656096]]}}, {"type": "Feature", "properties": {"id": "nw-e230", "path": "main-south", "lengthM": 17.18}, "geometry": {"type": "LineString", "coordinates": [[106.6395951, 10.7645373], [106.6395939, 10.7645211], [106.6395878, 10.7644513], [106.6395807, 10.7643826]]}}, {"type": "Feature", "properties": {"id": "nw-e231", "path": "main-south", "lengthM": 22.0}, "geometry": {"type": "LineString", "coordinates": [[106.6395807, 10.7643826], [106.6395728, 10.7643151], [106.6395641, 10.7642492], [106.6395547, 10.7641853]]}}, {"type": "Feature", "properties": {"id": "nw-e232", "path": "nam-tu-loop", "lengthM": 17.76}, "geometry": {"type": "LineString", "coordinates": [[106.6401921, 10.7655247], [106.6403214, 10.7655344], [106.6403141, 10.7655029]]}}, {"type": "Feature", "properties": {"id": "nw-e233", "path": "nam-tu-loop", "lengthM": 17.22}, "geometry": {"type": "LineString", "coordinates": [[106.6403141, 10.7655029], [106.6403075, 10.7654714], [106.6403016, 10.7654402], [106.6402966, 10.7654094], [106.6402928, 10.7653789], [106.6402901, 10.765349]]}}, {"type": "Feature", "properties": {"id": "nw-e234", "path": "nam-tu-loop", "lengthM": 9.45}, "geometry": {"type": "LineString", "coordinates": [[106.6402901, 10.765349], [106.6402889, 10.7653198], [106.6402893, 10.7652913], [106.6402913, 10.7652637]]}}, {"type": "Feature", "properties": {"id": "nw-e235", "path": "gate-1-east-avenue", "lengthM": 17.44}, "geometry": {"type": "LineString", "coordinates": [[106.6406102, 10.7658521], [106.6404511, 10.7658414]]}}, {"type": "Feature", "properties": {"id": "nw-e236", "path": "main-north", "lengthM": 17.82}, "geometry": {"type": "LineString", "coordinates": [[106.6375632, 10.7647703], [106.6375559, 10.7647845], [106.6375344, 10.7648277], [106.6375136, 10.7648715], [106.6374934, 10.7649159]]}}, {"type": "Feature", "properties": {"id": "nw-e237", "path": "main-north", "lengthM": 16.54}, "geometry": {"type": "LineString", "coordinates": [[106.6374934, 10.7649159], [106.6374737, 10.7649611], [106.6374546, 10.7650072], [106.637436, 10.7650543]]}}, {"type": "Feature", "properties": {"id": "nw-e238", "path": "main-north", "lengthM": 16.13}, "geometry": {"type": "LineString", "coordinates": [[106.637436, 10.7650543], [106.637415, 10.7650997], [106.6373947, 10.7651439], [106.637375, 10.7651871]]}}, {"type": "Feature", "properties": {"id": "nw-e239", "path": "main-north", "lengthM": 15.27}, "geometry": {"type": "LineString", "coordinates": [[106.637375, 10.7651871], [106.637356, 10.7652297], [106.6373379, 10.765272], [106.6373206, 10.7653143]]}}, {"type": "Feature", "properties": {"id": "nw-e240", "path": "main-north", "lengthM": 20.4}, "geometry": {"type": "LineString", "coordinates": [[106.6373206, 10.7653143], [106.6373042, 10.7653568], [106.6372888, 10.7653999], [106.6372745, 10.7654439], [106.6372614, 10.7654891]]}}, {"type": "Feature", "properties": {"id": "nw-e241", "path": "gate-2-access", "lengthM": 13.02}, "geometry": {"type": "LineString", "coordinates": [[106.6373446, 10.7682622], [106.6373385, 10.7683798]]}}, {"type": "Feature", "properties": {"id": "nw-e242", "path": "main-north", "lengthM": 2.16}, "geometry": {"type": "LineString", "coordinates": [[106.638234, 10.7633347], [106.6382269, 10.7633471], [106.6382244, 10.7633518]]}}, {"type": "Feature", "properties": {"id": "nw-e243", "path": "children-east", "lengthM": 21.98}, "geometry": {"type": "LineString", "coordinates": [[106.6385353, 10.7680631], [106.6385391, 10.7680613], [106.6385968, 10.7680318], [106.6386545, 10.7680007], [106.6387119, 10.7679682]]}}, {"type": "Feature", "properties": {"id": "nw-e244", "path": "children-east", "lengthM": 21.84}, "geometry": {"type": "LineString", "coordinates": [[106.6387119, 10.7679682], [106.638769, 10.7679345], [106.6388256, 10.7678998], [106.6388815, 10.7678641]]}}, {"type": "Feature", "properties": {"id": "nw-e245", "path": "children-east", "lengthM": 22.8}, "geometry": {"type": "LineString", "coordinates": [[106.6388815, 10.7678641], [106.6389366, 10.7678275], [106.6389907, 10.7677904], [106.6390504, 10.7677434]]}}, {"type": "Feature", "properties": {"id": "nw-e246", "path": "children-east", "lengthM": 14.93}, "geometry": {"type": "LineString", "coordinates": [[106.6390504, 10.7677434], [106.6391078, 10.7676954], [106.6391536, 10.7676549]]}}, {"type": "Feature", "properties": {"id": "nw-e247", "path": "gate-2-access", "lengthM": 12.02}, "geometry": {"type": "LineString", "coordinates": [[106.6373385, 10.7683798], [106.6373329, 10.7684883]]}}, {"type": "Feature", "properties": {"id": "nw-e248", "path": "gate-1A-access", "lengthM": 18.4}, "geometry": {"type": "LineString", "coordinates": [[106.6411003, 10.7660929], [106.6411043, 10.7661161], [106.6411099, 10.7661497], [106.6411151, 10.7661843], [106.6411196, 10.7662201], [106.6411231, 10.7662577]]}}, {"type": "Feature", "properties": {"id": "nw-e249", "path": "gate-1A-access", "lengthM": 64.95}, "geometry": {"type": "LineString", "coordinates": [[106.6411231, 10.7662577], [106.6411254, 10.7662973], [106.6409176, 10.766805]]}}, {"type": "Feature", "properties": {"id": "nw-e250", "path": "garden-west", "lengthM": 1.26}, "geometry": {"type": "LineString", "coordinates": [[106.6400764, 10.764263], [106.6400764, 10.764263], [106.6400876, 10.7642655]]}}, {"type": "Feature", "properties": {"id": "nw-e251", "path": "garden-west", "lengthM": 17.24}, "geometry": {"type": "LineString", "coordinates": [[106.6400876, 10.7642655], [106.640112, 10.7642708], [106.6401459, 10.7642791], [106.6401783, 10.7642881], [106.6402092, 10.764298], [106.6402387, 10.7643089]]}}, {"type": "Feature", "properties": {"id": "nw-e252", "path": "garden-west", "lengthM": 16.98}, "geometry": {"type": "LineString", "coordinates": [[106.6402387, 10.7643089], [106.6402672, 10.7643211], [106.6402947, 10.7643346], [106.6403213, 10.7643498], [106.6403472, 10.7643667], [106.6403727, 10.7643856]]}}, {"type": "Feature", "properties": {"id": "nw-e253", "path": "garden-west", "lengthM": 22.28}, "geometry": {"type": "LineString", "coordinates": [[106.6403727, 10.7643856], [106.6403977, 10.7644065], [106.6404225, 10.7644298], [106.6405026, 10.7645394]]}}]}