{
  "type": "FeatureCollection", "name": "synthetic_fixture_walkway_edges", "features": [
    {"type": "Feature", "id": "N1-N2", "geometry": {"type": "LineString", "coordinates": [[106.63470, 10.76700], [106.63500, 10.76700]]}, "properties": {"db_id": 1, "source": "N1", "target": "N2", "length_m": 32.7, "cost": 32.7, "reverse_cost": 32.7, "status": "open", "accessibility": "step_free", "surface": "paved", "source_name": "synthetic_fixture"}},
    {"type": "Feature", "id": "N2-N3", "geometry": {"type": "LineString", "coordinates": [[106.63500, 10.76700], [106.63535, 10.76700]]}, "properties": {"db_id": 2, "source": "N2", "target": "N3", "length_m": 38.2, "cost": 38.2, "reverse_cost": 38.2, "status": "open", "accessibility": "step_free", "surface": "paved", "source_name": "synthetic_fixture"}},
    {"type": "Feature", "id": "N3-N4", "geometry": {"type": "LineString", "coordinates": [[106.63535, 10.76700], [106.63570, 10.76700]]}, "properties": {"db_id": 3, "source": "N3", "target": "N4", "length_m": 38.2, "cost": 38.2, "reverse_cost": 38.2, "status": "open", "accessibility": "step_free", "surface": "paved", "source_name": "synthetic_fixture"}},
    {"type": "Feature", "id": "N2-N5", "geometry": {"type": "LineString", "coordinates": [[106.63500, 10.76700], [106.63500, 10.76730]]}, "properties": {"db_id": 4, "source": "N2", "target": "N5", "length_m": 33.4, "cost": 33.4, "reverse_cost": 33.4, "status": "open", "accessibility": "step_free", "surface": "paved", "source_name": "synthetic_fixture"}},
    {"type": "Feature", "id": "N3-N6", "geometry": {"type": "LineString", "coordinates": [[106.63535, 10.76700], [106.63535, 10.76730]]}, "properties": {"db_id": 5, "source": "N3", "target": "N6", "length_m": 33.4, "cost": 33.4, "reverse_cost": 33.4, "status": "open", "accessibility": "stairs", "surface": "steps", "source_name": "synthetic_fixture"}},
    {"type": "Feature", "id": "N4-N7", "geometry": {"type": "LineString", "coordinates": [[106.63570, 10.76700], [106.63570, 10.76730]]}, "properties": {"db_id": 6, "source": "N4", "target": "N7", "length_m": 33.4, "cost": 33.4, "reverse_cost": 33.4, "status": "open", "accessibility": "step_free", "surface": "paved", "source_name": "synthetic_fixture"}},
    {"type": "Feature", "id": "N5-N6", "geometry": {"type": "LineString", "coordinates": [[106.63500, 10.76730], [106.63535, 10.76730]]}, "properties": {"db_id": 7, "source": "N5", "target": "N6", "length_m": 38.2, "cost": 38.2, "reverse_cost": 38.2, "status": "open", "accessibility": "step_free", "surface": "paved", "source_name": "synthetic_fixture"}},
    {"type": "Feature", "id": "N6-N7", "geometry": {"type": "LineString", "coordinates": [[106.63535, 10.76730], [106.63570, 10.76730]]}, "properties": {"db_id": 8, "source": "N6", "target": "N7", "length_m": 38.2, "cost": 38.2, "reverse_cost": 38.2, "status": "open", "accessibility": "step_free", "surface": "paved", "source_name": "synthetic_fixture"}}
  ]
}
